{
  "type": "FeatureCollection",
  "features": [
    {
      "type": "Feature",
      "geometry": {
        "type": "Point",
        "coordinates": [
          110.39164423942567,
          -7.791971853164589
        ]
      },
      "properties": {
        "id": "1",
        "name": "Simpang APMD (PTZ)",
        "descr": "",
        "category": "1",
        "opd": "",
        "status": "0",
        "video_url": "https://cctvjss.jogjakota.go.id/atcs/ATCS_apmd.stream/playlist.m3u8",
        "source": "cctv.jogjakota.go.id/home/getdata"
      }
    },
    {
      "type": "Feature",
      "geometry": {
        "type": "Point",
        "coordinates": [
          110.35751581511731,
          -7.789037936569344
        ]
      },
      "properties": {
        "id": "2",
        "name": "Simpang Jlagran (PTZ)",
        "descr": "",
        "category": "1",
        "opd": "160",
        "status": "0",
        "video_url": "https://cctvjss.jogjakota.go.id/atcs/ATCS_jlagran.stream/playlist.m3u8",
        "source": "cctv.jogjakota.go.id/home/getdata"
      }
    },
    {
      "type": "Feature",
      "geometry": {
        "type": "Point",
        "coordinates": [
          110.38416623749504,
          -7.801676647596209
        ]
      },
      "properties": {
        "id": "3",
        "name": "Simpang Cendana (PTZ)",
        "descr": "",
        "category": "1",
        "opd": "160",
        "status": "0",
        "video_url": "https://cctvjss.jogjakota.go.id/atcs/ATCS_cendana.stream/playlist.m3u8",
        "source": "cctv.jogjakota.go.id/home/getdata"
      }
    },
    {
      "type": "Feature",
      "geometry": {
        "type": "Point",
        "coordinates": [
          110.377627,
          -7.797301
        ]
      },
      "properties": {
        "id": "5",
        "name": "Simpang Gayam (PTZ)",
        "descr": "",
        "category": "1",
        "opd": "",
        "status": "0",
        "video_url": "https://cctvjss.jogjakota.go.id/atcs/ATCS_gayam.stream/playlist.m3u8",
        "source": "cctv.jogjakota.go.id/home/getdata"
      }
    },
    {
      "type": "Feature",
      "geometry": {
        "type": "Point",
        "coordinates": [
          110.35594,
          -7.81294
        ]
      },
      "properties": {
        "id": "9",
        "name": "Simpang Jokteng Kulon (PTZ)",
        "descr": "",
        "category": "1",
        "opd": "",
        "status": "0",
        "video_url": "https://cctvjss.jogjakota.go.id/atcs/ATCS_joktengkulon.stream/playlist.m3u8",
        "source": "cctv.jogjakota.go.id/home/getdata"
      }
    },
    {
      "type": "Feature",
      "geometry": {
        "type": "Point",
        "coordinates": [
          110.36806762218477,
          -7.814380894891082
        ]
      },
      "properties": {
        "id": "10",
        "name": "Simpang Jokteng Wetan",
        "descr": "",
        "category": "1",
        "opd": "",
        "status": "0",
        "video_url": "https://cctvjss.jogjakota.go.id/atcs/ATCS_joktengwetan.stream/playlist.m3u8",
        "source": "cctv.jogjakota.go.id/home/getdata"
      }
    },
    {
      "type": "Feature",
      "geometry": {
        "type": "Point",
        "coordinates": [
          110.36475215767108,
          -7.8010758219105565
        ]
      },
      "properties": {
        "id": "14",
        "name": "Simpang KM Nol (PTZ)",
        "descr": "",
        "category": "1",
        "opd": "160",
        "status": "0",
        "video_url": "https://cctvjss.jogjakota.go.id/atcs/ATCS_kmnol.stream/playlist.m3u8",
        "source": "cctv.jogjakota.go.id/home/getdata"
      }
    },
    {
      "type": "Feature",
      "geometry": {
        "type": "Point",
        "coordinates": [
          110.37307262420656,
          -7.8015437731163875
        ]
      },
      "properties": {
        "id": "16",
        "name": "Simpang Permata (PTZ)",
        "descr": "",
        "category": "1",
        "opd": "",
        "status": "0",
        "video_url": "https://cctvjss.jogjakota.go.id/atcs/ATCS_permata.stream/playlist.m3u8",
        "source": "cctv.jogjakota.go.id/home/getdata"
      }
    },
    {
      "type": "Feature",
      "geometry": {
        "type": "Point",
        "coordinates": [
          110.362061,
          -7.801283
        ]
      },
      "properties": {
        "id": "17",
        "name": "Simpang PKU Muh. (PTZ)",
        "descr": "",
        "category": "1",
        "opd": "",
        "status": "0",
        "video_url": "https://cctvjss.jogjakota.go.id/atcs/ATCS_pkumuh.stream/playlist.m3u8",
        "source": "cctv.jogjakota.go.id/home/getdata"
      }
    },
    {
      "type": "Feature",
      "geometry": {
        "type": "Point",
        "coordinates": [
          110.3779435343926,
          -7.801442745827733
        ]
      },
      "properties": {
        "id": "19",
        "name": "Simpang Sentul (PTZ)",
        "descr": "",
        "category": "1",
        "opd": "145",
        "status": "0",
        "video_url": "https://cctvjss.jogjakota.go.id/atcs/ATCS_sentul.stream/playlist.m3u8",
        "source": "cctv.jogjakota.go.id/home/getdata"
      }
    },
    {
      "type": "Feature",
      "geometry": {
        "type": "Point",
        "coordinates": [
          110.35540228552313,
          -7.800627191909387
        ]
      },
      "properties": {
        "id": "20",
        "name": "Simpang Serangan (PTZ)",
        "descr": "",
        "category": "1",
        "opd": "",
        "status": "0",
        "video_url": "https://cctvjss.jogjakota.go.id/atcs/ATCS_serangan.stream/playlist.m3u8",
        "source": "cctv.jogjakota.go.id/home/getdata"
      }
    },
    {
      "type": "Feature",
      "geometry": {
        "type": "Point",
        "coordinates": [
          110.3951472015336,
          -7.801931750851164
        ]
      },
      "properties": {
        "id": "21",
        "name": "Simpang SGM V. Timur",
        "descr": "",
        "category": "1",
        "opd": "160",
        "status": "0",
        "video_url": "https://cctvjss.jogjakota.go.id/atcs/ATCS_simpangsgm.stream/playlist.m3u8",
        "source": "cctv.jogjakota.go.id/home/getdata"
      }
    },
    {
      "type": "Feature",
      "geometry": {
        "type": "Point",
        "coordinates": [
          110.37609279155733,
          -7.815638294774954
        ]
      },
      "properties": {
        "id": "22",
        "name": "Simpang Tungkak (PTZ)",
        "descr": "",
        "category": "1",
        "opd": "",
        "status": "0",
        "video_url": "https://cctvjss.jogjakota.go.id/atcs/ATCS_tungkak.stream/playlist.m3u8",
        "source": "cctv.jogjakota.go.id/home/getdata"
      }
    },
    {
      "type": "Feature",
      "geometry": {
        "type": "Point",
        "coordinates": [
          110.37776112556459,
          -7.7937256793331935
        ]
      },
      "properties": {
        "id": "23",
        "name": "Simpang Tunjung (PTZ)",
        "descr": "",
        "category": "1",
        "opd": "160",
        "status": "0",
        "video_url": "https://cctvjss.jogjakota.go.id/atcs/ATCS_tunjung.stream/playlist.m3u8",
        "source": "cctv.jogjakota.go.id/home/getdata"
      }
    },
    {
      "type": "Feature",
      "geometry": {
        "type": "Point",
        "coordinates": [
          110.37864159708089,
          -7.787246808444076
        ]
      },
      "properties": {
        "id": "24",
        "name": "Simpang UKDW (PTZ)",
        "descr": "",
        "category": "1",
        "opd": "160",
        "status": "0",
        "video_url": "https://cctvjss.jogjakota.go.id/atcs/ATCS_ukdw.stream/playlist.m3u8",
        "source": "cctv.jogjakota.go.id/home/getdata"
      }
    },
    {
      "type": "Feature",
      "geometry": {
        "type": "Point",
        "coordinates": [
          110.35178123104426,
          -7.801025054502792
        ]
      },
      "properties": {
        "id": "25",
        "name": "Simpang Wirobrajan (PTZ)",
        "descr": "",
        "category": "1",
        "opd": "",
        "status": "0",
        "video_url": "https://cctvjss.jogjakota.go.id/atcs/ATCS_wirobrajan.stream/playlist.m3u8",
        "source": "cctv.jogjakota.go.id/home/getdata"
      }
    },
    {
      "type": "Feature",
      "geometry": {
        "type": "Point",
        "coordinates": [
          110.39598405361177,
          -7.790914106163658
        ]
      },
      "properties": {
        "id": "29",
        "name": "Sungai Gajah Wong 2",
        "descr": "",
        "category": "2",
        "opd": "",
        "status": "0",
        "video_url": "https://cctvjss.jogjakota.go.id/bpbd/BPBD_gajahwong2.stream/playlist.m3u8",
        "source": "cctv.jogjakota.go.id/home/getdata"
      }
    },
    {
      "type": "Feature",
      "geometry": {
        "type": "Point",
        "coordinates": [
          110.35666287355627,
          -7.789489704931309
        ]
      },
      "properties": {
        "id": "30",
        "name": "Sungai Winongo",
        "descr": "",
        "category": "2",
        "opd": "165",
        "status": "0",
        "video_url": "https://cctvjss.jogjakota.go.id/bpbd/BPBD_kaliwinongo.stream/playlist.m3u8",
        "source": "cctv.jogjakota.go.id/home/getdata"
      }
    },
    {
      "type": "Feature",
      "geometry": {
        "type": "Point",
        "coordinates": [
          110.38926337561489,
          -7.722645179146617
        ]
      },
      "properties": {
        "id": "31",
        "name": "Sungai Ngentak",
        "descr": "",
        "category": "2",
        "opd": "",
        "status": "0",
        "video_url": "https://cctvjss.jogjakota.go.id/bpbd/BPBD_ngentak.stream/playlist.m3u8",
        "source": "cctv.jogjakota.go.id/home/getdata"
      }
    },
    {
      "type": "Feature",
      "geometry": {
        "type": "Point",
        "coordinates": [
          110.36602878685423,
          -7.789968068779914
        ]
      },
      "properties": {
        "id": "33",
        "name": "Malioboro_Selatan_Teteg",
        "descr": "",
        "category": "3",
        "opd": "154",
        "status": "0",
        "video_url": "https://cctvjss.jogjakota.go.id/malioboro/Malioboro_1_Selatan_Teteg.stream/playlist.m3u8",
        "source": "cctv.jogjakota.go.id/home/getdata"
      }
    },
    {
      "type": "Feature",
      "geometry": {
        "type": "Point",
        "coordinates": [
          110.36598244705164,
          -7.790940582024625
        ]
      },
      "properties": {
        "id": "34",
        "name": "Malioboro_Depan_Toko_Subur",
        "descr": "",
        "category": "3",
        "opd": "",
        "status": "0",
        "video_url": "https://cctvjss.jogjakota.go.id/malioboro/Malioboro_2_Depan_Toko_Subur.stream/playlist.m3u8",
        "source": "cctv.jogjakota.go.id/home/getdata"
      }
    },
    {
      "type": "Feature",
      "geometry": {
        "type": "Point",
        "coordinates": [
          110.36556255986987,
          -7.794862859073506
        ]
      },
      "properties": {
        "id": "35",
        "name": "Malioboro_Depan_Dispar",
        "descr": "",
        "category": "3",
        "opd": "145",
        "status": "0",
        "video_url": "https://cctvjss.jogjakota.go.id/malioboro/Malioboro_3_Depan_Dispar.stream/playlist.m3u8",
        "source": "cctv.jogjakota.go.id/home/getdata"
      }
    },
    {
      "type": "Feature",
      "geometry": {
        "type": "Point",
        "coordinates": [
          110.36588966846467,
          -7.79206216435044
        ]
      },
      "properties": {
        "id": "89",
        "name": "Malioboro_Depan_DPRD",
        "descr": "",
        "category": "3",
        "opd": "145",
        "status": "0",
        "video_url": "https://cctvjss.jogjakota.go.id/malioboro/Malioboro_4_Depan_DPRD.stream/playlist.m3u8",
        "source": "cctv.jogjakota.go.id/home/getdata"
      }
    },
    {
      "type": "Feature",
      "geometry": {
        "type": "Point",
        "coordinates": [
          110.36579812427252,
          -7.792632688541971
        ]
      },
      "properties": {
        "id": "91",
        "name": "Malioboro_Perwakilan",
        "descr": "",
        "category": "3",
        "opd": "",
        "status": "0",
        "video_url": "https://cctvjss.jogjakota.go.id/malioboro/Malioboro_5_Perwakilan.stream/playlist.m3u8",
        "source": "cctv.jogjakota.go.id/home/getdata"
      }
    },
    {
      "type": "Feature",
      "geometry": {
        "type": "Point",
        "coordinates": [
          110.36575199779577,
          -7.7928274661386405
        ]
      },
      "properties": {
        "id": "92",
        "name": "Malioboro_Mall_Utara",
        "descr": "",
        "category": "3",
        "opd": "",
        "status": "0",
        "video_url": "https://cctvjss.jogjakota.go.id/malioboro/Malioboro_6_Mall_Utara.stream/playlist.m3u8",
        "source": "cctv.jogjakota.go.id/home/getdata"
      }
    },
    {
      "type": "Feature",
      "geometry": {
        "type": "Point",
        "coordinates": [
          110.365546752152,
          -7.795525296050228
        ]
      },
      "properties": {
        "id": "93",
        "name": "Malioboro_Mall_Selatan",
        "descr": "",
        "category": "3",
        "opd": "",
        "status": "0",
        "video_url": "https://cctvjss.jogjakota.go.id/malioboro/Malioboro_7_Mall_Selatan.stream/playlist.m3u8",
        "source": "cctv.jogjakota.go.id/home/getdata"
      }
    },
    {
      "type": "Feature",
      "geometry": {
        "type": "Point",
        "coordinates": [
          110.36497885251785,
          -7.798719615928482
        ]
      },
      "properties": {
        "id": "94",
        "name": "Malioboro_Pasar_Beringharjo",
        "descr": "",
        "category": "3",
        "opd": "",
        "status": "0",
        "video_url": "https://cctvjss.jogjakota.go.id/malioboro/Malioboro_30_Pasar_Beringharjo.stream/playlist.m3u8",
        "source": "cctv.jogjakota.go.id/home/getdata"
      }
    },
    {
      "type": "Feature",
      "geometry": {
        "type": "Point",
        "coordinates": [
          110.39198555588979,
          -7.80196464259207
        ]
      },
      "properties": {
        "id": "129",
        "name": "Simpang UST (PTZ)",
        "descr": "",
        "category": "1",
        "opd": "",
        "status": "0",
        "video_url": "https://cctvjss.jogjakota.go.id/atcs/ATCS_UST.stream/playlist.m3u8",
        "source": "cctv.jogjakota.go.id/home/getdata"
      }
    },
    {
      "type": "Feature",
      "geometry": {
        "type": "Point",
        "coordinates": [
          110.38908192757836,
          -7.802046545043447
        ]
      },
      "properties": {
        "id": "130",
        "name": "Simpang Glagahsari",
        "descr": "",
        "category": "1",
        "opd": "",
        "status": "0",
        "video_url": "https://cctvjss.jogjakota.go.id/atcs/ATCS_Glagahsari.stream/playlist.m3u8",
        "source": "cctv.jogjakota.go.id/home/getdata"
      }
    },
    {
      "type": "Feature",
      "geometry": {
        "type": "Point",
        "coordinates": [
          110.36923706531525,
          -7.803446455001373
        ]
      },
      "properties": {
        "id": "147",
        "name": "Simpang Ibu Ruswo (PTZ)",
        "descr": "",
        "category": "1",
        "opd": "160",
        "status": "0",
        "video_url": "https://cctvjss.jogjakota.go.id/atcs/ATCS_Ibu_Ruswo.stream/playlist.m3u8",
        "source": "cctv.jogjakota.go.id/home/getdata"
      }
    },
    {
      "type": "Feature",
      "geometry": {
        "type": "Point",
        "coordinates": [
          110.35380363464357,
          -7.790786548521135
        ]
      },
      "properties": {
        "id": "148",
        "name": "Simpang BPK (PTZ)",
        "descr": "",
        "category": "1",
        "opd": "160",
        "status": "0",
        "video_url": "https://cctvjss.jogjakota.go.id/atcs/ATCS_bpk.stream/playlist.m3u8",
        "source": "cctv.jogjakota.go.id/home/getdata"
      }
    },
    {
      "type": "Feature",
      "geometry": {
        "type": "Point",
        "coordinates": [
          110.36561806201635,
          -7.794451656004724
        ]
      },
      "properties": {
        "id": "151",
        "name": "Malioboro_Mutiara_Lama",
        "descr": "",
        "category": "3",
        "opd": "",
        "status": "0",
        "video_url": "https://cctvjss.jogjakota.go.id/malioboro/Malioboro_8_Mutiara_Lama.stream/playlist.m3u8",
        "source": "cctv.jogjakota.go.id/home/getdata"
      }
    },
    {
      "type": "Feature",
      "geometry": {
        "type": "Point",
        "coordinates": [
          110.36551831517565,
          -7.795030980613941
        ]
      },
      "properties": {
        "id": "152",
        "name": "Malioboro_Mutiara_Baru",
        "descr": "",
        "category": "3",
        "opd": "",
        "status": "0",
        "video_url": "https://cctvjss.jogjakota.go.id/malioboro/Malioboro_9_Mutiara_Baru.stream/playlist.m3u8",
        "source": "cctv.jogjakota.go.id/home/getdata"
      }
    },
    {
      "type": "Feature",
      "geometry": {
        "type": "Point",
        "coordinates": [
          110.3654040724604,
          -7.795889821019304
        ]
      },
      "properties": {
        "id": "153",
        "name": "Malioboro_Kepatihan",
        "descr": "",
        "category": "3",
        "opd": "",
        "status": "0",
        "video_url": "https://cctvjss.jogjakota.go.id/malioboro/Malioboro_10_Kepatihan.stream/playlist.m3u8",
        "source": "cctv.jogjakota.go.id/home/getdata"
      }
    },
    {
      "type": "Feature",
      "geometry": {
        "type": "Point",
        "coordinates": [
          110.3654040724604,
          -7.795889821019304
        ]
      },
      "properties": {
        "id": "154",
        "name": "Malioboro_Terang_Bulan",
        "descr": "",
        "category": "3",
        "opd": "",
        "status": "0",
        "video_url": "https://cctvjss.jogjakota.go.id/malioboro/Malioboro_11_Terang_Bulan.stream/playlist.m3u8",
        "source": "cctv.jogjakota.go.id/home/getdata"
      }
    },
    {
      "type": "Feature",
      "geometry": {
        "type": "Point",
        "coordinates": [
          110.36514909953651,
          -7.797582095787332
        ]
      },
      "properties": {
        "id": "155",
        "name": "Malioboro_Ramayana",
        "descr": "",
        "category": "3",
        "opd": "",
        "status": "0",
        "video_url": "https://cctvjss.jogjakota.go.id/malioboro/Malioboro_12_Ramayana.stream/playlist.m3u8",
        "source": "cctv.jogjakota.go.id/home/getdata"
      }
    },
    {
      "type": "Feature",
      "geometry": {
        "type": "Point",
        "coordinates": [
          110.36505603570875,
          -7.798180495804701
        ]
      },
      "properties": {
        "id": "156",
        "name": "Malioboro_Gunungmas",
        "descr": "",
        "category": "3",
        "opd": "",
        "status": "0",
        "video_url": "https://cctvjss.jogjakota.go.id/malioboro/Malioboro_13_Gunungmas.stream/playlist.m3u8",
        "source": "cctv.jogjakota.go.id/home/getdata"
      }
    },
    {
      "type": "Feature",
      "geometry": {
        "type": "Point",
        "coordinates": [
          110.36772693747565,
          -7.8246771495840735
        ]
      },
      "properties": {
        "id": "157",
        "name": "Simpang Jogokariyan V. Selatan",
        "descr": "",
        "category": "1",
        "opd": "16",
        "status": "0",
        "video_url": "https://cctvjss.jogjakota.go.id/atcs/ATCS_jogokaryan.stream/playlist.m3u8",
        "source": "cctv.jogjakota.go.id/home/getdata"
      }
    },
    {
      "type": "Feature",
      "geometry": {
        "type": "Point",
        "coordinates": [
          110.38318996932517,
          -7.81616527748688
        ]
      },
      "properties": {
        "id": "159",
        "name": "Simpang APPI - JL.Mentri Supeno",
        "descr": "",
        "category": "1",
        "opd": "",
        "status": "0",
        "video_url": "https://cctvjss.jogjakota.go.id/atcs/ATCS_Lampu_Merah_JlMentriSupeno.stream/playlist.m3u8",
        "source": "cctv.jogjakota.go.id/home/getdata"
      }
    },
    {
      "type": "Feature",
      "geometry": {
        "type": "Point",
        "coordinates": [
          110.35790740623065,
          -7.7827290840714
        ]
      },
      "properties": {
        "id": "160",
        "name": "Simpang Kiai Mojo 1 (Barat)",
        "descr": "",
        "category": "1",
        "opd": "145",
        "status": "0",
        "video_url": "https://cctvjss.jogjakota.go.id/atcs/ATCS_Lampu_Merah_KyaiMojo.stream/playlist.m3u8",
        "source": "cctv.jogjakota.go.id/home/getdata"
      }
    },
    {
      "type": "Feature",
      "geometry": {
        "type": "Point",
        "coordinates": [
          110.35799326837432,
          -7.782686735299533
        ]
      },
      "properties": {
        "id": "161",
        "name": "Simpang Kiai Mojo 2 (Timur)",
        "descr": "",
        "category": "1",
        "opd": "145",
        "status": "0",
        "video_url": "https://cctvjss.jogjakota.go.id/atcs/ATCS_Lampu_Merah_KyaiMojo2.stream/playlist.m3u8",
        "source": "cctv.jogjakota.go.id/home/getdata"
      }
    },
    {
      "type": "Feature",
      "geometry": {
        "type": "Point",
        "coordinates": [
          110.3606539964676,
          -7.78273439372399
        ]
      },
      "properties": {
        "id": "163",
        "name": "Simpang Pingit 1 - Jl.Tentara Pelajar",
        "descr": "",
        "category": "1",
        "opd": "",
        "status": "0",
        "video_url": "https://cctvjss.jogjakota.go.id/atcs/ATCS_Lampu_Merah_Pingit1.stream/playlist.m3u8",
        "source": "cctv.jogjakota.go.id/home/getdata"
      }
    },
    {
      "type": "Feature",
      "geometry": {
        "type": "Point",
        "coordinates": [
          110.36073178052905,
          -7.782906599809257
        ]
      },
      "properties": {
        "id": "164",
        "name": "Simpang Pingit 2 - Jl. Tentara Pelajar",
        "descr": "",
        "category": "1",
        "opd": "",
        "status": "0",
        "video_url": "https://cctvjss.jogjakota.go.id/atcs/ATCS_Lampu_Merah_Pingit2.stream/playlist.m3u8",
        "source": "cctv.jogjakota.go.id/home/getdata"
      }
    },
    {
      "type": "Feature",
      "geometry": {
        "type": "Point",
        "coordinates": [
          110.36065936088563,
          -7.782989513873122
        ]
      },
      "properties": {
        "id": "165",
        "name": "Simpang Pingit 3 - Jl. Tentara Pelajar",
        "descr": "",
        "category": "1",
        "opd": "",
        "status": "0",
        "video_url": "https://cctvjss.jogjakota.go.id/atcs/ATCS_Lampu_Merah_Pingit3.stream/playlist.m3u8",
        "source": "cctv.jogjakota.go.id/home/getdata"
      }
    },
    {
      "type": "Feature",
      "geometry": {
        "type": "Point",
        "coordinates": [
          110.39168715476991,
          -7.81438617624503
        ]
      },
      "properties": {
        "id": "166",
        "name": "Simpang Gambiran 1 - Jl.Veteran",
        "descr": "",
        "category": "1",
        "opd": "",
        "status": "0",
        "video_url": "https://cctvjss.jogjakota.go.id/atcs/ATCS_Lampu_Merah_Gambiran1.stream/playlist.m3u8",
        "source": "cctv.jogjakota.go.id/home/getdata"
      }
    },
    {
      "type": "Feature",
      "geometry": {
        "type": "Point",
        "coordinates": [
          110.39164423942567,
          -7.81440743465494
        ]
      },
      "properties": {
        "id": "167",
        "name": "Simpang Gambiran 2 - Jl.Veteran",
        "descr": "",
        "category": "1",
        "opd": "",
        "status": "0",
        "video_url": "https://cctvjss.jogjakota.go.id/atcs/ATCS_Lampu_Merah_Gambiran2.stream/playlist.m3u8",
        "source": "cctv.jogjakota.go.id/home/getdata"
      }
    },
    {
      "type": "Feature",
      "geometry": {
        "type": "Point",
        "coordinates": [
          110.384139418602,
          -7.816740538562657
        ]
      },
      "properties": {
        "id": "168",
        "name": "Simpang APPI 2 - Jl.Mentri Supeno",
        "descr": "",
        "category": "1",
        "opd": "",
        "status": "0",
        "video_url": "https://cctvjss.jogjakota.go.id/atcs/ATCS_Lampu_Merah_JlMentriSupeno2.stream/playlist.m3u8",
        "source": "cctv.jogjakota.go.id/home/getdata"
      }
    },
    {
      "type": "Feature",
      "geometry": {
        "type": "Point",
        "coordinates": [
          110.37321213463336,
          -7.815185853586888
        ]
      },
      "properties": {
        "id": "169",
        "name": "Simpang Karang Tunggal (S3 Jl. Kol.Sugiyono - Jl. Sisingamangaraja) 1",
        "descr": "",
        "category": "1",
        "opd": "160",
        "status": "0",
        "video_url": "https://cctvjss.jogjakota.go.id/atcs/ATCS_Lampu_Merah_SopMerah1.stream/playlist.m3u8",
        "source": "cctv.jogjakota.go.id/home/getdata"
      }
    },
    {
      "type": "Feature",
      "geometry": {
        "type": "Point",
        "coordinates": [
          110.37314236437618,
          -7.815170621589384
        ]
      },
      "properties": {
        "id": "170",
        "name": "Simpang Karang Tunggal (S3 Jl. Kol.Sugiyono - Jl. Sisingamangaraja) 2",
        "descr": "",
        "category": "1",
        "opd": "160",
        "status": "0",
        "video_url": "https://cctvjss.jogjakota.go.id/atcs/ATCS_Lampu_Merah_SopMerah2.stream/playlist.m3u8",
        "source": "cctv.jogjakota.go.id/home/getdata"
      }
    },
    {
      "type": "Feature",
      "geometry": {
        "type": "Point",
        "coordinates": [
          110.36834641369498,
          -7.814580608924652
        ]
      },
      "properties": {
        "id": "171",
        "name": "Simpang Jokteng Wetan - Jl. Parangtritis (PTZ)",
        "descr": "",
        "category": "1",
        "opd": "145",
        "status": "0",
        "video_url": "https://cctvjss.jogjakota.go.id/atcs/ATCS_Lampu_Merah_JoktengWetan.stream/playlist.m3u8",
        "source": "cctv.jogjakota.go.id/home/getdata"
      }
    },
    {
      "type": "Feature",
      "geometry": {
        "type": "Point",
        "coordinates": [
          110.36288023131759,
          -7.8139588927123365
        ]
      },
      "properties": {
        "id": "172",
        "name": "Simpang Pasar Gading 1 (Timur)",
        "descr": "",
        "category": "1",
        "opd": "145",
        "status": "0",
        "video_url": "https://cctvjss.jogjakota.go.id/atcs/ATCS_Lampu_Merah_PasarGading1.stream/playlist.m3u8",
        "source": "cctv.jogjakota.go.id/home/getdata"
      }
    },
    {
      "type": "Feature",
      "geometry": {
        "type": "Point",
        "coordinates": [
          110.36279439652623,
          -7.813985428289541
        ]
      },
      "properties": {
        "id": "173",
        "name": "Simpang Pasar Gading 2 (Barat)",
        "descr": "",
        "category": "1",
        "opd": "145",
        "status": "0",
        "video_url": "https://cctvjss.jogjakota.go.id/atcs/ATCS_Lampu_Merah_PasarGading2.stream/playlist.m3u8",
        "source": "cctv.jogjakota.go.id/home/getdata"
      }
    },
    {
      "type": "Feature",
      "geometry": {
        "type": "Point",
        "coordinates": [
          110.34950673580171,
          -7.81196271042108
        ]
      },
      "properties": {
        "id": "174",
        "name": "Simpang Sugeng Jeroni 1 - Jl.Sugeng Jeroni",
        "descr": "",
        "category": "1",
        "opd": "",
        "status": "0",
        "video_url": "https://cctvjss.jogjakota.go.id/atcs/ATCS_Lampu_Merah_SugengJeroni1.stream/playlist.m3u8",
        "source": "cctv.jogjakota.go.id/home/getdata"
      }
    },
    {
      "type": "Feature",
      "geometry": {
        "type": "Point",
        "coordinates": [
          110.34948527812959,
          -7.811930822619116
        ]
      },
      "properties": {
        "id": "175",
        "name": "Simpang Sugeng Jeroni 2 - Jl.Sugeng Jeroni",
        "descr": "",
        "category": "1",
        "opd": "",
        "status": "0",
        "video_url": "https://cctvjss.jogjakota.go.id/atcs/ATCS_Lampu_Merah_SugengJeroni2.stream/playlist.m3u8",
        "source": "cctv.jogjakota.go.id/home/getdata"
      }
    },
    {
      "type": "Feature",
      "geometry": {
        "type": "Point",
        "coordinates": [
          110.3562392409939,
          -7.801304669900324
        ]
      },
      "properties": {
        "id": "176",
        "name": "Parkiran Ngabean",
        "descr": "",
        "category": "1",
        "opd": "145",
        "status": "0",
        "video_url": "https://cctvjss.jogjakota.go.id/atcs/ATCS_Parkiran_Ngabean.stream/playlist.m3u8",
        "source": "cctv.jogjakota.go.id/home/getdata"
      }
    },
    {
      "type": "Feature",
      "geometry": {
        "type": "Point",
        "coordinates": [
          110.36082565784456,
          -7.782895969804031
        ]
      },
      "properties": {
        "id": "177",
        "name": "Simpang Pingit 4 - Jl. Tentara Pelajar",
        "descr": "",
        "category": "1",
        "opd": "",
        "status": "0",
        "video_url": "https://cctvjss.jogjakota.go.id/atcs/ATCS_Lampu_Merah_Pingit4.stream/playlist.m3u8",
        "source": "cctv.jogjakota.go.id/home/getdata"
      }
    },
    {
      "type": "Feature",
      "geometry": {
        "type": "Point",
        "coordinates": [
          110.37438154220582,
          -7.776092711190059
        ]
      },
      "properties": {
        "id": "178",
        "name": "Simpang Mirota (PTZ)",
        "descr": "",
        "category": "1",
        "opd": "",
        "status": "0",
        "video_url": "https://cctvjss.jogjakota.go.id/atcs/ATCS_mirota.stream/playlist.m3u8",
        "source": "cctv.jogjakota.go.id/home/getdata"
      }
    },
    {
      "type": "Feature",
      "geometry": {
        "type": "Point",
        "coordinates": [
          110.35600572824481,
          -7.808656995329348
        ]
      },
      "properties": {
        "id": "179",
        "name": "Simpang Taman Sari (PTZ)",
        "descr": "",
        "category": "1",
        "opd": "",
        "status": "0",
        "video_url": "https://cctvjss.jogjakota.go.id/atcs/ATCS_tamansari.stream/playlist.m3u8",
        "source": "cctv.jogjakota.go.id/home/getdata"
      }
    },
    {
      "type": "Feature",
      "geometry": {
        "type": "Point",
        "coordinates": [
          110.38486361503602,
          -7.801009107286565
        ]
      },
      "properties": {
        "id": "180",
        "name": "RTHP Semaki  1",
        "descr": "",
        "category": "9",
        "opd": "",
        "status": "0",
        "video_url": "https://cctvjss.jogjakota.go.id/rthp/rthp_semaki_1.stream/playlist.m3u8",
        "source": "cctv.jogjakota.go.id/home/getdata"
      }
    },
    {
      "type": "Feature",
      "geometry": {
        "type": "Point",
        "coordinates": [
          110.38476164953087,
          -7.800863445056773
        ]
      },
      "properties": {
        "id": "181",
        "name": "RTHP Semaki 2",
        "descr": "",
        "category": "9",
        "opd": "155",
        "status": "0",
        "video_url": "https://cctvjss.jogjakota.go.id/rthp/rthp_semaki_2.stream/playlist.m3u8",
        "source": "cctv.jogjakota.go.id/home/getdata"
      }
    },
    {
      "type": "Feature",
      "geometry": {
        "type": "Point",
        "coordinates": [
          110.38661509752275,
          -7.780754051505308
        ]
      },
      "properties": {
        "id": "195",
        "name": "RTHP Klitren 2",
        "descr": "",
        "category": "9",
        "opd": "",
        "status": "0",
        "video_url": "https://cctvjss.jogjakota.go.id/rthp/rthp_klitren_2.stream/playlist.m3u8",
        "source": "cctv.jogjakota.go.id/home/getdata"
      }
    },
    {
      "type": "Feature",
      "geometry": {
        "type": "Point",
        "coordinates": [
          110.37587821483612,
          -7.798514511635184
        ]
      },
      "properties": {
        "id": "196",
        "name": "RTHP Gunungketur 1",
        "descr": "",
        "category": "9",
        "opd": "",
        "status": "0",
        "video_url": "https://cctvjss.jogjakota.go.id/rthp/rthp_gunungketur_1.stream/playlist.m3u8",
        "source": "cctv.jogjakota.go.id/home/getdata"
      }
    },
    {
      "type": "Feature",
      "geometry": {
        "type": "Point",
        "coordinates": [
          110.37850946122491,
          -7.799409389904506
        ]
      },
      "properties": {
        "id": "197",
        "name": "RTHP Gunungketur 2",
        "descr": "",
        "category": "9",
        "opd": "",
        "status": "0",
        "video_url": "https://cctvjss.jogjakota.go.id/rthp/rthp_gunungketur_2.stream/playlist.m3u8",
        "source": "cctv.jogjakota.go.id/home/getdata"
      }
    },
    {
      "type": "Feature",
      "geometry": {
        "type": "Point",
        "coordinates": [
          110.36958709709043,
          -7.8229788155132445
        ]
      },
      "properties": {
        "id": "198",
        "name": "RTHP Brontokusuman (blkg Kel) 1",
        "descr": "",
        "category": "9",
        "opd": "",
        "status": "0",
        "video_url": "https://cctvjss.jogjakota.go.id/rthp/rthp_brontokusuman_blkgKel_1.stream/playlist.m3u8",
        "source": "cctv.jogjakota.go.id/home/getdata"
      }
    },
    {
      "type": "Feature",
      "geometry": {
        "type": "Point",
        "coordinates": [
          110.36960304501743,
          -7.823094663198694
        ]
      },
      "properties": {
        "id": "199",
        "name": "RTHP Brontokusuman (blkg Kel) 2",
        "descr": "",
        "category": "9",
        "opd": "",
        "status": "0",
        "video_url": "https://cctvjss.jogjakota.go.id/rthp/rthp_brontokusuman_blkgKel_2.stream/playlist.m3u8",
        "source": "cctv.jogjakota.go.id/home/getdata"
      }
    },
    {
      "type": "Feature",
      "geometry": {
        "type": "Point",
        "coordinates": [
          110.34968912601472,
          -7.790451792570068
        ]
      },
      "properties": {
        "id": "201",
        "name": "RTHP Segoro Amarto Tegalrejo 2",
        "descr": "",
        "category": "9",
        "opd": "",
        "status": "0",
        "video_url": "https://cctvjss.jogjakota.go.id/rthp/rthp_segoro_amarto_tegalrejo_2.stream/playlist.m3u8",
        "source": "cctv.jogjakota.go.id/home/getdata"
      }
    },
    {
      "type": "Feature",
      "geometry": {
        "type": "Point",
        "coordinates": [
          110.35138428211214,
          -7.797903142588836
        ]
      },
      "properties": {
        "id": "202",
        "name": "RTHP Pakudaya Pakuncen 1",
        "descr": "",
        "category": "9",
        "opd": "",
        "status": "0",
        "video_url": "https://cctvjss.jogjakota.go.id/rthp/rthp_pakudaya_pakuncen_1.stream/playlist.m3u8",
        "source": "cctv.jogjakota.go.id/home/getdata"
      }
    },
    {
      "type": "Feature",
      "geometry": {
        "type": "Point",
        "coordinates": [
          110.35135745969455,
          -7.797937190603234
        ]
      },
      "properties": {
        "id": "203",
        "name": "RTHP Pakudaya Pakuncen 2",
        "descr": "",
        "category": "9",
        "opd": "",
        "status": "0",
        "video_url": "https://cctvjss.jogjakota.go.id/rthp/rthp_pakudaya_pakuncen_2.stream/playlist.m3u8",
        "source": "cctv.jogjakota.go.id/home/getdata"
      }
    },
    {
      "type": "Feature",
      "geometry": {
        "type": "Point",
        "coordinates": [
          110.38367271423341,
          -7.797400394268464
        ]
      },
      "properties": {
        "id": "204",
        "name": "Simpang Amongrogo View Timur",
        "descr": "",
        "category": "1",
        "opd": "",
        "status": "0",
        "video_url": "https://cctvjss.jogjakota.go.id/atcs/ATCS_Simpang_Amongrogo_View_Timur.stream/playlist.m3u8",
        "source": "cctv.jogjakota.go.id/home/getdata"
      }
    },
    {
      "type": "Feature",
      "geometry": {
        "type": "Point",
        "coordinates": [
          110.38771748542787,
          -7.783007619231968
        ]
      },
      "properties": {
        "id": "205",
        "name": "Simpang Demangan View Utara",
        "descr": "",
        "category": "1",
        "opd": "",
        "status": "0",
        "video_url": "https://cctvjss.jogjakota.go.id/atcs/ATCS_Simpang_Demangan_View_Utara.stream/playlist.m3u8",
        "source": "cctv.jogjakota.go.id/home/getdata"
      }
    },
    {
      "type": "Feature",
      "geometry": {
        "type": "Point",
        "coordinates": [
          110.38801789316496,
          -7.783214902770064
        ]
      },
      "properties": {
        "id": "206",
        "name": "Simpang Demangan View Selatan",
        "descr": "",
        "category": "1",
        "opd": "",
        "status": "0",
        "video_url": "https://cctvjss.jogjakota.go.id/atcs/ATCS_Simpang_Demangan_View_Selatan.stream/playlist.m3u8",
        "source": "cctv.jogjakota.go.id/home/getdata"
      }
    },
    {
      "type": "Feature",
      "geometry": {
        "type": "Point",
        "coordinates": [
          110.38792029309523,
          -7.783107508322567
        ]
      },
      "properties": {
        "id": "207",
        "name": "Simpang Demangan View Timur",
        "descr": "",
        "category": "1",
        "opd": "16",
        "status": "0",
        "video_url": "https://cctvjss.jogjakota.go.id/atcs/ATCS_Simpang_Demangan_View_Timur.stream/playlist.m3u8",
        "source": "cctv.jogjakota.go.id/home/getdata"
      }
    },
    {
      "type": "Feature",
      "geometry": {
        "type": "Point",
        "coordinates": [
          110.39223968949956,
          -7.783214903094468
        ]
      },
      "properties": {
        "id": "227",
        "name": "Simpang DeBritto View Utara",
        "descr": "",
        "category": "1",
        "opd": "",
        "status": "0",
        "video_url": "https://cctvjss.jogjakota.go.id/atcs/ATCS_Simpang_DeBritto_View_Utara.stream/playlist.m3u8",
        "source": "cctv.jogjakota.go.id/home/getdata"
      }
    },
    {
      "type": "Feature",
      "geometry": {
        "type": "Point",
        "coordinates": [
          110.372273322723,
          -7.782782282285227
        ]
      },
      "properties": {
        "id": "228",
        "name": "Simpang Terban View Utara",
        "descr": "",
        "category": "1",
        "opd": "145",
        "status": "0",
        "video_url": "https://cctvjss.jogjakota.go.id/atcs/ATCS_Simpang_Terban_View_Utara.stream/playlist.m3u8",
        "source": "cctv.jogjakota.go.id/home/getdata"
      }
    },
    {
      "type": "Feature",
      "geometry": {
        "type": "Point",
        "coordinates": [
          110.40206193956693,
          -7.8107084889395955
        ]
      },
      "properties": {
        "id": "232",
        "name": "Simpang Rejowinangun View Timur",
        "descr": "",
        "category": "1",
        "opd": "16",
        "status": "0",
        "video_url": "https://cctvjss.jogjakota.go.id/atcs/ATCS_Simpang_Rejowinangun_View_Timur.stream/playlist.m3u8",
        "source": "cctv.jogjakota.go.id/home/getdata"
      }
    },
    {
      "type": "Feature",
      "geometry": {
        "type": "Point",
        "coordinates": [
          110.3923523426056,
          -7.79952415717506
        ]
      },
      "properties": {
        "id": "233",
        "name": "Simpang Balaikota View Timur",
        "descr": "",
        "category": "1",
        "opd": "145",
        "status": "0",
        "video_url": "https://cctvjss.jogjakota.go.id/atcs/ATCS_Simpang_Balaikota_View_Utara.stream/playlist.m3u8",
        "source": "cctv.jogjakota.go.id/home/getdata"
      }
    },
    {
      "type": "Feature",
      "geometry": {
        "type": "Point",
        "coordinates": [
          110.3922959120451,
          -7.799623974573921
        ]
      },
      "properties": {
        "id": "234",
        "name": "Simpang Balaikota View Utara-Barat",
        "descr": "",
        "category": "1",
        "opd": "16",
        "status": "0",
        "video_url": "https://cctvjss.jogjakota.go.id/atcs/ATCS_Simpang_Balaikota_View_Timur.stream/playlist.m3u8",
        "source": "cctv.jogjakota.go.id/home/getdata"
      }
    },
    {
      "type": "Feature",
      "geometry": {
        "type": "Point",
        "coordinates": [
          110.36535915123088,
          -7.796362906882283
        ]
      },
      "properties": {
        "id": "235",
        "name": "Malioboro_Simpang_Pajeksan_Suryatmajan",
        "descr": "",
        "category": "3",
        "opd": "",
        "status": "0",
        "video_url": "https://cctvjss.jogjakota.go.id/malioboro/Malioboro_22_Simpang_Pajeksan_Suryatmajan.stream/playlist.m3u8",
        "source": "cctv.jogjakota.go.id/home/getdata"
      }
    },
    {
      "type": "Feature",
      "geometry": {
        "type": "Point",
        "coordinates": [
          110.3648718633361,
          -7.799709820932644
        ]
      },
      "properties": {
        "id": "236",
        "name": "Malioboro_Simpang_Reksobayan",
        "descr": "",
        "category": "3",
        "opd": "",
        "status": "0",
        "video_url": "https://cctvjss.jogjakota.go.id/malioboro/Malioboro_24_Simpang_Reksobayan.stream/playlist.m3u8",
        "source": "cctv.jogjakota.go.id/home/getdata"
      }
    },
    {
      "type": "Feature",
      "geometry": {
        "type": "Point",
        "coordinates": [
          110.40140518577397,
          -7.801731782919982
        ]
      },
      "properties": {
        "id": "237",
        "name": "Simpang Gedongkuning (PTZ)",
        "descr": "",
        "category": "1",
        "opd": "",
        "status": "0",
        "video_url": "https://cctvjss.jogjakota.go.id/atcs/ATCS_Gedongkuning.stream/playlist.m3u8",
        "source": "cctv.jogjakota.go.id/home/getdata"
      }
    },
    {
      "type": "Feature",
      "geometry": {
        "type": "Point",
        "coordinates": [
          110.3676009181436,
          -7.77806995317632
        ]
      },
      "properties": {
        "id": "239",
        "name": "Simpang Jetis (PTZ)",
        "descr": "",
        "category": "1",
        "opd": "",
        "status": "0",
        "video_url": "https://cctvjss.jogjakota.go.id/atcs/ATCS_Jetis.stream/playlist.m3u8",
        "source": "cctv.jogjakota.go.id/home/getdata"
      }
    },
    {
      "type": "Feature",
      "geometry": {
        "type": "Point",
        "coordinates": [
          110.3721661078962,
          -7.782840865073605
        ]
      },
      "properties": {
        "id": "241",
        "name": "Simpang Terban View Timur",
        "descr": "",
        "category": "1",
        "opd": "145",
        "status": "0",
        "video_url": "https://cctvjss.jogjakota.go.id/atcs/ATCS_Simpang_Terban_View_Timur.stream/playlist.m3u8",
        "source": "cctv.jogjakota.go.id/home/getdata"
      }
    },
    {
      "type": "Feature",
      "geometry": {
        "type": "Point",
        "coordinates": [
          110.3723589567884,
          -7.782829544640158
        ]
      },
      "properties": {
        "id": "242",
        "name": "Simpang Terban View Barat",
        "descr": "",
        "category": "1",
        "opd": "145",
        "status": "0",
        "video_url": "https://cctvjss.jogjakota.go.id/atcs/ATCS_Simpang_Terban_View_Barat.stream/playlist.m3u8",
        "source": "cctv.jogjakota.go.id/home/getdata"
      }
    },
    {
      "type": "Feature",
      "geometry": {
        "type": "Point",
        "coordinates": [
          110.38817846406626,
          -7.780939793541291
        ]
      },
      "properties": {
        "id": "243",
        "name": "Pasar Demangan View Selatan",
        "descr": "",
        "category": "1",
        "opd": "",
        "status": "0",
        "video_url": "https://cctvjss.jogjakota.go.id/atcs/ATCS_Pasar_Demangan_View_Selatan.stream/playlist.m3u8",
        "source": "cctv.jogjakota.go.id/home/getdata"
      }
    },
    {
      "type": "Feature",
      "geometry": {
        "type": "Point",
        "coordinates": [
          110.37923132903515,
          -7.78299465637002
        ]
      },
      "properties": {
        "id": "244",
        "name": "Simpang Galeria (PTZ)",
        "descr": "",
        "category": "1",
        "opd": "",
        "status": "0",
        "video_url": "https://cctvjss.jogjakota.go.id/atcs/ATCS_Simpang_Galeria_TimurSelatan.stream/playlist.m3u8",
        "source": "cctv.jogjakota.go.id/home/getdata"
      }
    },
    {
      "type": "Feature",
      "geometry": {
        "type": "Point",
        "coordinates": [
          110.36492407321931,
          -7.801235516577087
        ]
      },
      "properties": {
        "id": "245",
        "name": "Nol Km. - Utara",
        "descr": "",
        "category": "3",
        "opd": "",
        "status": "0",
        "video_url": "https://cctvjss.jogjakota.go.id/malioboro/NolKm_Utara.stream/playlist.m3u8",
        "source": "cctv.jogjakota.go.id/home/getdata"
      }
    },
    {
      "type": "Feature",
      "geometry": {
        "type": "Point",
        "coordinates": [
          110.36493122211407,
          -7.801309214472623
        ]
      },
      "properties": {
        "id": "246",
        "name": "Nol Km. - Timur",
        "descr": "",
        "category": "3",
        "opd": "",
        "status": "0",
        "video_url": "https://cctvjss.jogjakota.go.id/malioboro/NolKm_Timur.stream/playlist.m3u8",
        "source": "cctv.jogjakota.go.id/home/getdata"
      }
    },
    {
      "type": "Feature",
      "geometry": {
        "type": "Point",
        "coordinates": [
          110.36494553089143,
          -7.801025084854278
        ]
      },
      "properties": {
        "id": "247",
        "name": "Nol Km. - Gd. Agung",
        "descr": "",
        "category": "3",
        "opd": "",
        "status": "0",
        "video_url": "https://cctvjss.jogjakota.go.id/malioboro/NolKm_GdAgung.stream/playlist.m3u8",
        "source": "cctv.jogjakota.go.id/home/getdata"
      }
    },
    {
      "type": "Feature",
      "geometry": {
        "type": "Point",
        "coordinates": [
          110.37481070364103,
          -7.782861937761538
        ]
      },
      "properties": {
        "id": "248",
        "name": "Simpang Gramedia (PTZ)",
        "descr": "",
        "category": "1",
        "opd": "145",
        "status": "0",
        "video_url": "https://cctvjss.jogjakota.go.id/atcs/ATCS_Gramedia_2.stream/playlist.m3u8",
        "source": "cctv.jogjakota.go.id/home/getdata"
      }
    },
    {
      "type": "Feature",
      "geometry": {
        "type": "Point",
        "coordinates": [
          110.35258206065863,
          -7.781720077527172
        ]
      },
      "properties": {
        "id": "249",
        "name": "Simpang Jati Kencana (PTZ)",
        "descr": "",
        "category": "1",
        "opd": "",
        "status": "0",
        "video_url": "https://cctvjss.jogjakota.go.id/atcs/ATCS_Simpang_JatiKencana.stream/playlist.m3u8",
        "source": "cctv.jogjakota.go.id/home/getdata"
      }
    },
    {
      "type": "Feature",
      "geometry": {
        "type": "Point",
        "coordinates": [
          110.36105632814726,
          -7.778378226441675
        ]
      },
      "properties": {
        "id": "250",
        "name": "Simpang Borobudur Plaza",
        "descr": "",
        "category": "1",
        "opd": "",
        "status": "0",
        "video_url": "https://cctvjss.jogjakota.go.id/atcs/ATCS_Simpang_Borobudur_Plaza.stream/playlist.m3u8",
        "source": "cctv.jogjakota.go.id/home/getdata"
      }
    },
    {
      "type": "Feature",
      "geometry": {
        "type": "Point",
        "coordinates": [
          110.36697879463897,
          -7.782902141139962
        ]
      },
      "properties": {
        "id": "251",
        "name": "Simpang Tugu (PTZ)",
        "descr": "",
        "category": "1",
        "opd": "",
        "status": "0",
        "video_url": "https://cctvjss.jogjakota.go.id/atcs/ATCS_Simpang_Tugu.stream/playlist.m3u8",
        "source": "cctv.jogjakota.go.id/home/getdata"
      }
    },
    {
      "type": "Feature",
      "geometry": {
        "type": "Point",
        "coordinates": [
          110.37259619466906,
          -7.796832738009271
        ]
      },
      "properties": {
        "id": "273",
        "name": "Simpang Bausasran (PTZ)",
        "descr": "",
        "category": "1",
        "opd": "160",
        "status": "0",
        "video_url": "https://cctvjss.jogjakota.go.id/atcs/ATCS_S4_Bausasran.stream/playlist.m3u8",
        "source": "cctv.jogjakota.go.id/home/getdata"
      }
    },
    {
      "type": "Feature",
      "geometry": {
        "type": "Point",
        "coordinates": [
          110.3593021631241,
          -7.782213605984465
        ]
      },
      "properties": {
        "id": "275",
        "name": "Simpang Pingit 5 (PTZ)",
        "descr": "",
        "category": "1",
        "opd": "",
        "status": "0",
        "video_url": "https://cctvjss.jogjakota.go.id/atcs/ATCS_Lampu_Merah_Pingit5.stream/playlist.m3u8",
        "source": "cctv.jogjakota.go.id/home/getdata"
      }
    },
    {
      "type": "Feature",
      "geometry": {
        "type": "Point",
        "coordinates": [
          110.39085832343332,
          -7.7992572546386425
        ]
      },
      "properties": {
        "id": "323",
        "name": "Gerbang Masuk Utara V. Timur (Luar)",
        "descr": "",
        "category": "12",
        "opd": "145",
        "status": "0",
        "video_url": "https://cctvjss.jogjakota.go.id/balaikota/Balaikota_Gerbang_Masuk_Utara_View_Timur-Luar.stream/playlist.m3u8",
        "source": "cctv.jogjakota.go.id/home/getdata"
      }
    },
    {
      "type": "Feature",
      "geometry": {
        "type": "Point",
        "coordinates": [
          110.39218530969853,
          -7.800351051058131
        ]
      },
      "properties": {
        "id": "324",
        "name": "Gerbang Timur PKK V. Utara (Luar)",
        "descr": "",
        "category": "12",
        "opd": "",
        "status": "0",
        "video_url": "https://cctvjss.jogjakota.go.id/balaikota/Balaikota_Gerbang_Timur_PKK_View_Utara-Luar.stream/playlist.m3u8",
        "source": "cctv.jogjakota.go.id/home/getdata"
      }
    },
    {
      "type": "Feature",
      "geometry": {
        "type": "Point",
        "coordinates": [
          110.39217695404965,
          -7.800517942197907
        ]
      },
      "properties": {
        "id": "325",
        "name": "Gerbang Timur PKK V. Selatan (Luar)",
        "descr": "",
        "category": "12",
        "opd": "",
        "status": "0",
        "video_url": "https://cctvjss.jogjakota.go.id/balaikota/Balaikota_Gerbang_Timur_PKK_View_Selatan-Luar.stream/playlist.m3u8",
        "source": "cctv.jogjakota.go.id/home/getdata"
      }
    },
    {
      "type": "Feature",
      "geometry": {
        "type": "Point",
        "coordinates": [
          110.3659266942821,
          -7.792597577285484
        ]
      },
      "properties": {
        "id": "326",
        "name": "Malioboro_Utara_Mall",
        "descr": "",
        "category": "3",
        "opd": "",
        "status": "0",
        "video_url": "https://cctvjss.jogjakota.go.id/malioboro/Malioboro_25_Utara_Mall.stream/playlist.m3u8",
        "source": "cctv.jogjakota.go.id/home/getdata"
      }
    },
    {
      "type": "Feature",
      "geometry": {
        "type": "Point",
        "coordinates": [
          110.36624739289181,
          -7.790198659966794
        ]
      },
      "properties": {
        "id": "327",
        "name": "Malioboro_Utara_Inna_Malioboro",
        "descr": "",
        "category": "3",
        "opd": "",
        "status": "0",
        "video_url": "https://cctvjss.jogjakota.go.id/malioboro/Malioboro_21_Utara_Inna_Malioboro.stream/playlist.m3u8",
        "source": "cctv.jogjakota.go.id/home/getdata"
      }
    },
    {
      "type": "Feature",
      "geometry": {
        "type": "Point",
        "coordinates": [
          110.3655543924231,
          -7.795495525015239
        ]
      },
      "properties": {
        "id": "331",
        "name": "Malioboro_Depan_BPD_Kepatihan",
        "descr": "",
        "category": "3",
        "opd": "",
        "status": "0",
        "video_url": "https://cctvjss.jogjakota.go.id/malioboro/Malioboro_23_Depan_BPD_Kepatihan.stream/playlist.m3u8",
        "source": "cctv.jogjakota.go.id/home/getdata"
      }
    },
    {
      "type": "Feature",
      "geometry": {
        "type": "Point",
        "coordinates": [
          110.39226912295878,
          -7.799677125324242
        ]
      },
      "properties": {
        "id": "360",
        "name": "Simpang Balaikota (PTZ)",
        "descr": "",
        "category": "1",
        "opd": "",
        "status": "0",
        "video_url": "https://cctvjss.jogjakota.go.id/atcs/ATCS_Simpang_Balaikota_PTZ.stream/playlist.m3u8",
        "source": "cctv.jogjakota.go.id/home/getdata"
      }
    },
    {
      "type": "Feature",
      "geometry": {
        "type": "Point",
        "coordinates": [
          110.38498739881717,
          -7.797693605585319
        ]
      },
      "properties": {
        "id": "361",
        "name": "Simpang Mandala Krida (PTZ)",
        "descr": "",
        "category": "1",
        "opd": "",
        "status": "0",
        "video_url": "https://cctvjss.jogjakota.go.id/atcs/ATCS_Simpang_Mandala_Krida_PTZ.stream/playlist.m3u8",
        "source": "cctv.jogjakota.go.id/home/getdata"
      }
    },
    {
      "type": "Feature",
      "geometry": {
        "type": "Point",
        "coordinates": [
          110.40082275730018,
          -7.820469226095182
        ]
      },
      "properties": {
        "id": "362",
        "name": "Simpang Basen",
        "descr": "",
        "category": "1",
        "opd": "160",
        "status": "0",
        "video_url": "https://cctvjss.jogjakota.go.id/atcs/ATCS_Simpang_Basen.stream/playlist.m3u8",
        "source": "cctv.jogjakota.go.id/home/getdata"
      }
    },
    {
      "type": "Feature",
      "geometry": {
        "type": "Point",
        "coordinates": [
          110.36910532920628,
          -7.796728568306433
        ]
      },
      "properties": {
        "id": "368",
        "name": "Simpang Melia Purosani (PTZ)",
        "descr": "",
        "category": "1",
        "opd": "",
        "status": "0",
        "video_url": "https://cctvjss.jogjakota.go.id/atcs/ATCS_Simpang_Melia_Purosani.stream/playlist.m3u8",
        "source": "cctv.jogjakota.go.id/home/getdata"
      }
    },
    {
      "type": "Feature",
      "geometry": {
        "type": "Point",
        "coordinates": [
          110.35038569683671,
          -7.807857732704685
        ]
      },
      "properties": {
        "id": "369",
        "name": "Simpang Patangpuluhan (PTZ)",
        "descr": "",
        "category": "1",
        "opd": "",
        "status": "0",
        "video_url": "https://cctvjss.jogjakota.go.id/atcs/ATCS_Simpang_Patangpuluhan.stream/playlist.m3u8",
        "source": "cctv.jogjakota.go.id/home/getdata"
      }
    },
    {
      "type": "Feature",
      "geometry": {
        "type": "Point",
        "coordinates": [
          110.37832799636712,
          -7.7882638773187205
        ]
      },
      "properties": {
        "id": "370",
        "name": "Simpang Atmosukarto (PTZ)",
        "descr": "",
        "category": "1",
        "opd": "",
        "status": "0",
        "video_url": "https://cctvjss.jogjakota.go.id/atcs/ATCS_Simpang_Atmosukarto.stream/playlist.m3u8",
        "source": "cctv.jogjakota.go.id/home/getdata"
      }
    },
    {
      "type": "Feature",
      "geometry": {
        "type": "Point",
        "coordinates": [
          110.3732416032892,
          -7.824088403798951
        ]
      },
      "properties": {
        "id": "396",
        "name": "Simpang Pasar Telo View Selatan",
        "descr": "",
        "category": "1",
        "opd": "",
        "status": "0",
        "video_url": "https://cctvjss.jogjakota.go.id/atcs/ATCS_Simpang_Pasar_Telo_View_Selatan.stream/playlist.m3u8",
        "source": "cctv.jogjakota.go.id/home/getdata"
      }
    },
    {
      "type": "Feature",
      "geometry": {
        "type": "Point",
        "coordinates": [
          110.37327834764065,
          -7.824001180644657
        ]
      },
      "properties": {
        "id": "397",
        "name": "Simpang Pasar Telo View Utara",
        "descr": "",
        "category": "1",
        "opd": "",
        "status": "0",
        "video_url": "https://cctvjss.jogjakota.go.id/atcs/ATCS_Simpang_Pasar_Telo_View_Utara.stream/playlist.m3u8",
        "source": "cctv.jogjakota.go.id/home/getdata"
      }
    },
    {
      "type": "Feature",
      "geometry": {
        "type": "Point",
        "coordinates": [
          110.39079264444666,
          -7.8179756585404165
        ]
      },
      "properties": {
        "id": "398",
        "name": "Simpang Gambiran View Timur",
        "descr": "",
        "category": "1",
        "opd": "",
        "status": "0",
        "video_url": "https://cctvjss.jogjakota.go.id/atcs/ATCS_Simpang_Gambiran_View_Timur.stream/playlist.m3u8",
        "source": "cctv.jogjakota.go.id/home/getdata"
      }
    },
    {
      "type": "Feature",
      "geometry": {
        "type": "Point",
        "coordinates": [
          110.39069870536835,
          -7.8180180722047075
        ]
      },
      "properties": {
        "id": "399",
        "name": "Simpang Gambiran View Barat",
        "descr": "",
        "category": "1",
        "opd": "",
        "status": "0",
        "video_url": "https://cctvjss.jogjakota.go.id/atcs/ATCS_Simpang_Gambiran_View_Barat.stream/playlist.m3u8",
        "source": "cctv.jogjakota.go.id/home/getdata"
      }
    },
    {
      "type": "Feature",
      "geometry": {
        "type": "Point",
        "coordinates": [
          110.36664542890458,
          -7.785469840304706
        ]
      },
      "properties": {
        "id": "428",
        "name": "Utara Jl. Gowongan Lor",
        "descr": "",
        "category": "33",
        "opd": "",
        "status": "0",
        "video_url": "https://cctvjss.jogjakota.go.id/margo-utomo/Gowongan-Lor.stream/playlist.m3u8",
        "source": "cctv.jogjakota.go.id/home/getdata"
      }
    },
    {
      "type": "Feature",
      "geometry": {
        "type": "Point",
        "coordinates": [
          110.36636285723944,
          -7.787608577
        ]
      },
      "properties": {
        "id": "429",
        "name": "Optic Tugu",
        "descr": "",
        "category": "33",
        "opd": "",
        "status": "0",
        "video_url": "https://cctvjss.jogjakota.go.id/margo-utomo/Optic-Tugu.stream/playlist.m3u8",
        "source": "cctv.jogjakota.go.id/home/getdata"
      }
    },
    {
      "type": "Feature",
      "geometry": {
        "type": "Point",
        "coordinates": [
          110.36645328866635,
          -7.786747557411913
        ]
      },
      "properties": {
        "id": "430",
        "name": "Selatan Olive",
        "descr": "",
        "category": "33",
        "opd": "154",
        "status": "0",
        "video_url": "https://cctvjss.jogjakota.go.id/margo-utomo/Selatan-Olive.stream/playlist.m3u8",
        "source": "cctv.jogjakota.go.id/home/getdata"
      }
    },
    {
      "type": "Feature",
      "geometry": {
        "type": "Point",
        "coordinates": [
          110.36684213112976,
          -7.783625896047373
        ]
      },
      "properties": {
        "id": "431",
        "name": "Selatan Tugu",
        "descr": "",
        "category": "33",
        "opd": "154",
        "status": "0",
        "video_url": "https://cctvjss.jogjakota.go.id/margo-utomo/Toko-Cat-Wahyu.stream/playlist.m3u8",
        "source": "cctv.jogjakota.go.id/home/getdata"
      }
    },
    {
      "type": "Feature",
      "geometry": {
        "type": "Point",
        "coordinates": [
          110.36651088816471,
          -7.786227400840768
        ]
      },
      "properties": {
        "id": "432",
        "name": "Wijaya Baru Travel",
        "descr": "",
        "category": "33",
        "opd": "",
        "status": "0",
        "video_url": "https://cctvjss.jogjakota.go.id/margo-utomo/Wijaya-Baru-Travel.stream/playlist.m3u8",
        "source": "cctv.jogjakota.go.id/home/getdata"
      }
    },
    {
      "type": "Feature",
      "geometry": {
        "type": "Point",
        "coordinates": [
          110.36612212388583,
          -7.7895208908900795
        ]
      },
      "properties": {
        "id": "433",
        "name": "Utara Teteg",
        "descr": "",
        "category": "33",
        "opd": "",
        "status": "0",
        "video_url": "https://cctvjss.jogjakota.go.id/margo-utomo/Wisma-Ratih.stream/playlist.m3u8",
        "source": "cctv.jogjakota.go.id/home/getdata"
      }
    },
    {
      "type": "Feature",
      "geometry": {
        "type": "Point",
        "coordinates": [
          110.37133456075773,
          -7.7878952261847605
        ]
      },
      "properties": {
        "id": "434",
        "name": "Jl. Nyoman Oka (Gereja Kotabaru)",
        "descr": "",
        "category": "34",
        "opd": "145",
        "status": "0",
        "video_url": "https://cctvjss.jogjakota.go.id/kotabaru/Jl-Nyoman-Oka.stream/playlist.m3u8",
        "source": "cctv.jogjakota.go.id/home/getdata"
      }
    },
    {
      "type": "Feature",
      "geometry": {
        "type": "Point",
        "coordinates": [
          110.37427424016906,
          -7.785588723515335
        ]
      },
      "properties": {
        "id": "435",
        "name": "Jl. Sajiono (Roemi)",
        "descr": "",
        "category": "34",
        "opd": "145",
        "status": "0",
        "video_url": "https://cctvjss.jogjakota.go.id/kotabaru/Jl-Sajiono.stream/playlist.m3u8",
        "source": "cctv.jogjakota.go.id/home/getdata"
      }
    },
    {
      "type": "Feature",
      "geometry": {
        "type": "Point",
        "coordinates": [
          110.37492319976059,
          -7.788155379820129
        ]
      },
      "properties": {
        "id": "436",
        "name": "Jl. Yos Sudarso (Mie Gacoan)",
        "descr": "",
        "category": "34",
        "opd": "145",
        "status": "0",
        "video_url": "https://cctvjss.jogjakota.go.id/kotabaru/ANPR-Jl-Yos-Sudarso.stream/playlist.m3u8",
        "source": "cctv.jogjakota.go.id/home/getdata"
      }
    },
    {
      "type": "Feature",
      "geometry": {
        "type": "Point",
        "coordinates": [
          110.3753846883774,
          -7.787315924164162
        ]
      },
      "properties": {
        "id": "437",
        "name": "Jl. Wardhani (Selatan-Timur SMPN 5)",
        "descr": "",
        "category": "34",
        "opd": "145",
        "status": "0",
        "video_url": "https://cctvjss.jogjakota.go.id/kotabaru/ANPR-Jl-Wardhani.stream/playlist.m3u8",
        "source": "cctv.jogjakota.go.id/home/getdata"
      }
    },
    {
      "type": "Feature",
      "geometry": {
        "type": "Point",
        "coordinates": [
          110.36966623154613,
          -7.789187005983453
        ]
      },
      "properties": {
        "id": "439",
        "name": "Jl. Ahmad Jazuli (Apotek K24)",
        "descr": "",
        "category": "34",
        "opd": "145",
        "status": "0",
        "video_url": "https://cctvjss.jogjakota.go.id/kotabaru/ANPR-Jl-Ahmad-Jazuli.stream/playlist.m3u8",
        "source": "cctv.jogjakota.go.id/home/getdata"
      }
    },
    {
      "type": "Feature",
      "geometry": {
        "type": "Point",
        "coordinates": [
          110.37159740924837,
          -7.784987949669264
        ]
      },
      "properties": {
        "id": "440",
        "name": "Jl. F.M. Noto (Raminten)",
        "descr": "",
        "category": "34",
        "opd": "145",
        "status": "0",
        "video_url": "https://cctvjss.jogjakota.go.id/kotabaru/ANPR-Jl-FM-Noto-Raminten.stream/playlist.m3u8",
        "source": "cctv.jogjakota.go.id/home/getdata"
      }
    },
    {
      "type": "Feature",
      "geometry": {
        "type": "Point",
        "coordinates": [
          110.3721703274016,
          -7.786832072162349
        ]
      },
      "properties": {
        "id": "441",
        "name": "Jl. F.M. Noto (Gardu ANIEM)",
        "descr": "",
        "category": "34",
        "opd": "145",
        "status": "0",
        "video_url": "https://cctvjss.jogjakota.go.id/kotabaru/ANPR-Jl-FM-Noto-Gardu-Aniem.stream/playlist.m3u8",
        "source": "cctv.jogjakota.go.id/home/getdata"
      }
    },
    {
      "type": "Feature",
      "geometry": {
        "type": "Point",
        "coordinates": [
          110.37456929683687,
          -7.785822400093772
        ]
      },
      "properties": {
        "id": "443",
        "name": "Jl. Juadi (Pojok Utara-Barat Telkom)",
        "descr": "",
        "category": "34",
        "opd": "145",
        "status": "0",
        "video_url": "https://cctvjss.jogjakota.go.id/kotabaru/Jl-Juadi.stream/playlist.m3u8",
        "source": "cctv.jogjakota.go.id/home/getdata"
      }
    },
    {
      "type": "Feature",
      "geometry": {
        "type": "Point",
        "coordinates": [
          110.37137746947677,
          -7.782968280627342
        ]
      },
      "properties": {
        "id": "444",
        "name": "Jl. F.M. Noto (McDonalds)",
        "descr": "",
        "category": "34",
        "opd": "145",
        "status": "0",
        "video_url": "https://cctvjss.jogjakota.go.id/kotabaru/ANPR-Jl-FM-Noto-McDonalds.stream/playlist.m3u8",
        "source": "cctv.jogjakota.go.id/home/getdata"
      }
    },
    {
      "type": "Feature",
      "geometry": {
        "type": "Point",
        "coordinates": [
          110.3617836916383,
          -7.820748744333765
        ]
      },
      "properties": {
        "id": "448",
        "name": "KemMJ-Timur Kemantren",
        "descr": "",
        "category": "35",
        "opd": "175",
        "status": "0",
        "video_url": "https://cctvjss.jogjakota.go.id/kecamatan/KemMJ-TimurKemantren.stream/playlist.m3u8",
        "source": "cctv.jogjakota.go.id/home/getdata"
      }
    },
    {
      "type": "Feature",
      "geometry": {
        "type": "Point",
        "coordinates": [
          110.36169744788464,
          -7.820833794284509
        ]
      },
      "properties": {
        "id": "449",
        "name": "KemMJ-Pendopo Kemantren",
        "descr": "",
        "category": "35",
        "opd": "175",
        "status": "0",
        "video_url": "https://cctvjss.jogjakota.go.id/kecamatan/KemMJ-PendopoKemantren.stream/playlist.m3u8",
        "source": "cctv.jogjakota.go.id/home/getdata"
      }
    },
    {
      "type": "Feature",
      "geometry": {
        "type": "Point",
        "coordinates": [
          110.36169728101575,
          -7.820772059437312
        ]
      },
      "properties": {
        "id": "450",
        "name": "KemMJ-Jalan Selatan Kemantren",
        "descr": "",
        "category": "35",
        "opd": "175",
        "status": "0",
        "video_url": "https://cctvjss.jogjakota.go.id/kecamatan/KemMJ-JalanSelatanKemantren.stream/playlist.m3u8",
        "source": "cctv.jogjakota.go.id/home/getdata"
      }
    },
    {
      "type": "Feature",
      "geometry": {
        "type": "Point",
        "coordinates": [
          110.37848308768241,
          -7.824866474885708
        ]
      },
      "properties": {
        "id": "466",
        "name": "Simpang Wirosaban View Selatan",
        "descr": "",
        "category": "1",
        "opd": "",
        "status": "0",
        "video_url": "https://cctvjss.jogjakota.go.id/atcs/ATCS_Simpang_Wirosaban_View_Selatan.stream/playlist.m3u8",
        "source": "cctv.jogjakota.go.id/home/getdata"
      }
    },
    {
      "type": "Feature",
      "geometry": {
        "type": "Point",
        "coordinates": [
          110.37841048372135,
          -7.824731313079836
        ]
      },
      "properties": {
        "id": "467",
        "name": "Simpang Wirosaban View Utara",
        "descr": "",
        "category": "1",
        "opd": "",
        "status": "0",
        "video_url": "https://cctvjss.jogjakota.go.id/atcs/ATCS_Simpang_Wirosaban_View_Utara.stream/playlist.m3u8",
        "source": "cctv.jogjakota.go.id/home/getdata"
      }
    },
    {
      "type": "Feature",
      "geometry": {
        "type": "Point",
        "coordinates": [
          110.37839209141384,
          -7.824814092616581
        ]
      },
      "properties": {
        "id": "468",
        "name": "Simpang Wirosaban View Barat",
        "descr": "",
        "category": "1",
        "opd": "",
        "status": "0",
        "video_url": "https://cctvjss.jogjakota.go.id/atcs/ATCS_Simpang_Wirosaban_View_Barat.stream/playlist.m3u8",
        "source": "cctv.jogjakota.go.id/home/getdata"
      }
    },
    {
      "type": "Feature",
      "geometry": {
        "type": "Point",
        "coordinates": [
          110.37848308768241,
          -7.824866474885708
        ]
      },
      "properties": {
        "id": "469",
        "name": "Simpang Wirosaban View Timur",
        "descr": "",
        "category": "1",
        "opd": "",
        "status": "0",
        "video_url": "https://cctvjss.jogjakota.go.id/atcs/ATCS_Simpang_Wirosaban_View_Timur.stream/playlist.m3u8",
        "source": "cctv.jogjakota.go.id/home/getdata"
      }
    },
    {
      "type": "Feature",
      "geometry": {
        "type": "Point",
        "coordinates": [
          110.36885461349216,
          -7.790545147867464
        ]
      },
      "properties": {
        "id": "476",
        "name": "Kleringan (Jl. Abu Bakar Ali)",
        "descr": "",
        "category": "1",
        "opd": "",
        "status": "0",
        "video_url": "https://cctvjss.jogjakota.go.id/atcs/ATCS_Kleringan_Abu_Bakar_Ali.stream/playlist.m3u8",
        "source": "cctv.jogjakota.go.id/home/getdata"
      }
    },
    {
      "type": "Feature",
      "geometry": {
        "type": "Point",
        "coordinates": [
          110.36762394240893,
          -7.824631710782664
        ]
      },
      "properties": {
        "id": "477",
        "name": "Simpang Jogokariyan V. Utara",
        "descr": "",
        "category": "1",
        "opd": "",
        "status": "0",
        "video_url": "https://cctvjss.jogjakota.go.id/atcs/ATCS_Simpang_Jogokariyan_View_Utara.stream/playlist.m3u8",
        "source": "cctv.jogjakota.go.id/home/getdata"
      }
    },
    {
      "type": "Feature",
      "geometry": {
        "type": "Point",
        "coordinates": [
          110.3935052560747,
          -7.817672502802456
        ]
      },
      "properties": {
        "id": "518",
        "name": "RTHP Gajah Wong Edu Park 3",
        "descr": "",
        "category": "9",
        "opd": "155",
        "status": "0",
        "video_url": "https://cctvjss.jogjakota.go.id/rthp/rthp_gajahwong_edupark_3.stream/playlist.m3u8",
        "source": "cctv.jogjakota.go.id/home/getdata"
      }
    },
    {
      "type": "Feature",
      "geometry": {
        "type": "Point",
        "coordinates": [
          110.39358079113731,
          -7.81751438246716
        ]
      },
      "properties": {
        "id": "519",
        "name": "RTHP Gajah Wong Edu Park 2",
        "descr": "",
        "category": "9",
        "opd": "155",
        "status": "0",
        "video_url": "https://cctvjss.jogjakota.go.id/rthp/rthp_gajahwong_edupark_2.stream/playlist.m3u8",
        "source": "cctv.jogjakota.go.id/home/getdata"
      }
    },
    {
      "type": "Feature",
      "geometry": {
        "type": "Point",
        "coordinates": [
          110.39348434351206,
          -7.8174877026184175
        ]
      },
      "properties": {
        "id": "520",
        "name": "RTHP Gajah Wong Edu Park 1",
        "descr": "",
        "category": "9",
        "opd": "155",
        "status": "0",
        "video_url": "https://cctvjss.jogjakota.go.id/rthp/rthp_gajahwong_edupark_1.stream/playlist.m3u8",
        "source": "cctv.jogjakota.go.id/home/getdata"
      }
    },
    {
      "type": "Feature",
      "geometry": {
        "type": "Point",
        "coordinates": [
          110.39001342912228,
          -7.825719943855978
        ]
      },
      "properties": {
        "id": "522",
        "name": "Simpang Tegalgendu V. Selatan",
        "descr": "",
        "category": "1",
        "opd": "160",
        "status": "0",
        "video_url": "https://cctvjss.jogjakota.go.id/atcs/ATCS_Simpang_Tegalgendu.stream/playlist.m3u8",
        "source": "cctv.jogjakota.go.id/home/getdata"
      }
    },
    {
      "type": "Feature",
      "geometry": {
        "type": "Point",
        "coordinates": [
          110.356416259686,
          -7.797292136759732
        ]
      },
      "properties": {
        "id": "524",
        "name": "Simpang Letjen Suprapto-KS. Tubun V. Utara",
        "descr": "",
        "category": "1",
        "opd": "145",
        "status": "0",
        "video_url": "https://cctvjss.jogjakota.go.id/atcs/ATCS_Simpang_Letjen_Suprapto_KS_Tubun_View_Utara.stream/playlist.m3u8",
        "source": "cctv.jogjakota.go.id/home/getdata"
      }
    },
    {
      "type": "Feature",
      "geometry": {
        "type": "Point",
        "coordinates": [
          110.38907480148295,
          -7.801783237222689
        ]
      },
      "properties": {
        "id": "525",
        "name": "Simpang Glagahsari (PTZ)",
        "descr": "",
        "category": "1",
        "opd": "160",
        "status": "0",
        "video_url": "https://cctvjss.jogjakota.go.id/atcs/ATCS_Glagahsari_PTZ.stream/playlist.m3u8",
        "source": "cctv.jogjakota.go.id/home/getdata"
      }
    },
    {
      "type": "Feature",
      "geometry": {
        "type": "Point",
        "coordinates": [
          110.3746614766573,
          -7.782626407365178
        ]
      },
      "properties": {
        "id": "755",
        "name": "Simpang Gramedia V. Utara-Timur",
        "descr": "",
        "category": "1",
        "opd": "145",
        "status": "0",
        "video_url": "https://cctvjss.jogjakota.go.id/atcs/ATCS_gramedia.stream/playlist.m3u8",
        "source": "cctv.jogjakota.go.id/home/getdata"
      }
    },
    {
      "type": "Feature",
      "geometry": {
        "type": "Point",
        "coordinates": [
          110.37106096471014,
          -7.793199498598524
        ]
      },
      "properties": {
        "id": "797",
        "name": "Jl. Mas Suharto V. Selatan (Depan LASERCOM)",
        "descr": "",
        "category": "1",
        "opd": "145",
        "status": "0",
        "video_url": "https://cctvjss.jogjakota.go.id/tps-liar/S3_Jl_Mas Suharto-Jl_Tegalpanggung.stream/playlist.m3u8",
        "source": "cctv.jogjakota.go.id/home/getdata"
      }
    },
    {
      "type": "Feature",
      "geometry": {
        "type": "Point",
        "coordinates": [
          110.3715920065371,
          -7.793247236280253
        ]
      },
      "properties": {
        "id": "798",
        "name": "Jl. Mas Suharto V. Utara (Barat Sari Wangi Parfum)",
        "descr": "",
        "category": "1",
        "opd": "145",
        "status": "0",
        "video_url": "https://cctvjss.jogjakota.go.id/tps-liar/S3_Jl_Mas Suharto-Jl_Tukangan.stream/playlist.m3u8",
        "source": "cctv.jogjakota.go.id/home/getdata"
      }
    },
    {
      "type": "Feature",
      "geometry": {
        "type": "Point",
        "coordinates": [
          110.35166856344493,
          -7.802782052880773
        ]
      },
      "properties": {
        "id": "816",
        "name": "RTHP Jopraban 3",
        "descr": "",
        "category": "9",
        "opd": "155",
        "status": "0",
        "video_url": "https://cctvjss.jogjakota.go.id/rthp/rthp_jopraban_3.stream/playlist.m3u8",
        "source": "cctv.jogjakota.go.id/home/getdata"
      }
    },
    {
      "type": "Feature",
      "geometry": {
        "type": "Point",
        "coordinates": [
          110.35160417812001,
          -7.802782095695886
        ]
      },
      "properties": {
        "id": "817",
        "name": "RTHP Jopraban 2",
        "descr": "",
        "category": "9",
        "opd": "155",
        "status": "0",
        "video_url": "https://cctvjss.jogjakota.go.id/rthp/rthp_jopraban_2.stream/playlist.m3u8",
        "source": "cctv.jogjakota.go.id/home/getdata"
      }
    },
    {
      "type": "Feature",
      "geometry": {
        "type": "Point",
        "coordinates": [
          110.35152911182564,
          -7.802723670902581
        ]
      },
      "properties": {
        "id": "818",
        "name": "RTHP Jopraban 1",
        "descr": "",
        "category": "9",
        "opd": "155",
        "status": "0",
        "video_url": "https://cctvjss.jogjakota.go.id/rthp/rthp_jopraban_1.stream/playlist.m3u8",
        "source": "cctv.jogjakota.go.id/home/getdata"
      }
    },
    {
      "type": "Feature",
      "geometry": {
        "type": "Point",
        "coordinates": [
          110.38786339750006,
          -7.783069238806793
        ]
      },
      "properties": {
        "id": "829",
        "name": "Simpang Demangan View Timur",
        "descr": "",
        "category": "1",
        "opd": "",
        "status": "0",
        "video_url": "https://cctvjss.jogjakota.go.id/atcs/ATCS_Simpang_Demangan_View_Timur.stream/playlist.m3u8",
        "source": "cctv.jogjakota.go.id/home/getdata"
      }
    },
    {
      "type": "Feature",
      "geometry": {
        "type": "Point",
        "coordinates": [
          110.40351567737893,
          -7.826495827309985
        ]
      },
      "properties": {
        "id": "839",
        "name": "RTHP Bumen",
        "descr": "",
        "category": "9",
        "opd": "145",
        "status": "0",
        "video_url": "https://cctvjss.jogjakota.go.id/rthp/rthp_bumen.stream/playlist.m3u8",
        "source": "cctv.jogjakota.go.id/home/getdata"
      }
    },
    {
      "type": "Feature",
      "geometry": {
        "type": "Point",
        "coordinates": [
          110.39246499264898,
          -7.7969677292407225
        ]
      },
      "properties": {
        "id": "842",
        "name": "Depan DPRD V. Utara",
        "descr": "",
        "category": "195",
        "opd": "145",
        "status": "0",
        "video_url": "https://cctvjss.jogjakota.go.id/dprd-kota/depan-dprd-v-utara.stream/playlist.m3u8",
        "source": "cctv.jogjakota.go.id/home/getdata"
      }
    },
    {
      "type": "Feature",
      "geometry": {
        "type": "Point",
        "coordinates": [
          110.3924489076006,
          -7.797154524077225
        ]
      },
      "properties": {
        "id": "843",
        "name": "Depan DPRD V. Selatan",
        "descr": "",
        "category": "195",
        "opd": "145",
        "status": "0",
        "video_url": "https://cctvjss.jogjakota.go.id/dprd-kota/depan-dprd-v-selatan.stream/playlist.m3u8",
        "source": "cctv.jogjakota.go.id/home/getdata"
      }
    },
    {
      "type": "Feature",
      "geometry": {
        "type": "Point",
        "coordinates": [
          110.39233624524866,
          -7.7970634121194955
        ]
      },
      "properties": {
        "id": "844",
        "name": "Depan DPRD Pos Security",
        "descr": "",
        "category": "195",
        "opd": "145",
        "status": "0",
        "video_url": "https://cctvjss.jogjakota.go.id/dprd-kota/depan-dprd-pos-security.stream/playlist.m3u8",
        "source": "cctv.jogjakota.go.id/home/getdata"
      }
    },
    {
      "type": "Feature",
      "geometry": {
        "type": "Point",
        "coordinates": [
          110.37315298653814,
          -7.823812428983515
        ]
      },
      "properties": {
        "id": "850",
        "name": "Simpang Pasar Telo (PTZ)",
        "descr": "",
        "category": "1",
        "opd": "160",
        "status": "0",
        "video_url": "https://cctvjss.jogjakota.go.id/atcs/ATCS_Pasar_Telo_PTZ.stream/playlist.m3u8",
        "source": "cctv.jogjakota.go.id/home/getdata"
      }
    },
    {
      "type": "Feature",
      "geometry": {
        "type": "Point",
        "coordinates": [
          110.37478924071134,
          -7.782808782374973
        ]
      },
      "properties": {
        "id": "856",
        "name": "Simpang Gramedia V. Timur",
        "descr": "",
        "category": "34",
        "opd": "145",
        "status": "0",
        "video_url": "https://cctvjss.jogjakota.go.id/kotabaru/ANPR-Simpang-Gramedia-V-Timur_Ex-Jl-Prau.stream/playlist.m3u8",
        "source": "cctv.jogjakota.go.id/home/getdata"
      }
    },
    {
      "type": "Feature",
      "geometry": {
        "type": "Point",
        "coordinates": [
          110.36901700929627,
          -7.8089628315616855
        ]
      },
      "properties": {
        "id": "873",
        "name": "Simpang Mantrigawen (PTZ)",
        "descr": "",
        "category": "1",
        "opd": "160",
        "status": "0",
        "video_url": "https://cctvjss.jogjakota.go.id/atcs/ATCS_Mantrigawen_PTZ.stream/playlist.m3u8",
        "source": "cctv.jogjakota.go.id/home/getdata"
      }
    }
  ]
}