{
  "type": "FeatureCollection",
  "generator": "overpass-turbo",
  "copyright": "The data included in this document is from www.openstreetmap.org. The data is made available under ODbL.",
  "timestamp": "2026-04-19T21:08:01Z",
  "features": [
    {
      "type": "Feature",
      "properties": {
        "@id": "way/120833434",
        "amenity": "police",
        "building": "yes",
        "building:levels": "1",
        "building:name": "Kantor Polisi Resor Batul Sektor Sleman",
        "building:roof": "tile",
        "building:structure": "confined_masonry",
        "building:use": "government",
        "building:walls": "brick",
        "name": "Kantor Polisi Resor Batul Sektor Sleman",
        "@geometry": "center"
      },
      "geometry": {
        "type": "Point",
        "coordinates": [
          110.3603566,
          -7.8472945
        ]
      },
      "id": "way/120833434"
    },
    {
      "type": "Feature",
      "properties": {
        "@id": "way/121400462",
        "access:roof": "no",
        "addr:full": "Jalan Magelang No.184",
        "amenity": "police",
        "building": "government_office",
        "building:condition": "good",
        "building:levels": "2",
        "building:material": "brick",
        "building:roof": "tile",
        "building:structure": "confined_masonry",
        "building:use": "government",
        "building:walls": "brick",
        "capacity:persons": "50-100",
        "name": "Polsek Tegal Rejo",
        "source": "survey",
        "@geometry": "center"
      },
      "geometry": {
        "type": "Point",
        "coordinates": [
          110.3615656,
          -7.7720903
        ]
      },
      "id": "way/121400462"
    },
    {
      "type": "Feature",
      "properties": {
        "@id": "way/121643269",
        "addr:city": "Yogyakarta",
        "addr:housenumber": "1",
        "addr:street": "Jalan Reksobayan",
        "amenity": "police",
        "building:roof": "tile",
        "building:structure": "reinforced_masonry",
        "building:use": "government",
        "building:walls": "brick",
        "landuse": "commercial",
        "name": "Polresta Yogyakarta",
        "opening_hours": "24/7",
        "wheelchair": "yes",
        "@geometry": "center"
      },
      "geometry": {
        "type": "Point",
        "coordinates": [
          110.3625911,
          -7.7997262
        ]
      },
      "id": "way/121643269"
    },
    {
      "type": "Feature",
      "properties": {
        "@id": "way/258224656",
        "access:roof": "no",
        "addr:full": "Jalan Purwanggan No. 53, Purwokinanti, Pakualaman, Kota Yogyakarta, Daerah Istimewa Yogyakarta 55262",
        "amenity": "police",
        "building": "yes",
        "building:condition": "good",
        "building:levels": "2",
        "building:material": "concrete",
        "building:roof": "tile",
        "building:structure": "confined_masonry",
        "capacity:persons": "50-100",
        "name": "Polsek Pakualaman",
        "source": "survey",
        "@geometry": "center"
      },
      "geometry": {
        "type": "Point",
        "coordinates": [
          110.3765354,
          -7.7978849
        ]
      },
      "id": "way/258224656"
    },
    {
      "type": "Feature",
      "properties": {
        "@id": "way/265560234",
        "amenity": "police",
        "building": "yes",
        "name": "Polsek Bulaksumur",
        "@geometry": "center"
      },
      "geometry": {
        "type": "Point",
        "coordinates": [
          110.3786438,
          -7.7661368
        ]
      },
      "id": "way/265560234"
    },
    {
      "type": "Feature",
      "properties": {
        "@id": "way/316774857",
        "amenity": "police",
        "building": "yes",
        "@geometry": "center"
      },
      "geometry": {
        "type": "Point",
        "coordinates": [
          110.3579998,
          -7.8083444
        ]
      },
      "id": "way/316774857"
    },
    {
      "type": "Feature",
      "properties": {
        "@id": "way/321229424",
        "amenity": "police",
        "building": "yes",
        "building:levels": "1",
        "building:roof": "tile",
        "name": "Kantor Polsek Gamping",
        "@geometry": "center"
      },
      "geometry": {
        "type": "Point",
        "coordinates": [
          110.3137761,
          -7.8027063
        ]
      },
      "id": "way/321229424"
    },
    {
      "type": "Feature",
      "properties": {
        "@id": "way/321229425",
        "amenity": "police",
        "building": "yes",
        "building:levels": "1",
        "building:roof": "tile",
        "name": "Kantor Polsek Gamping",
        "@geometry": "center"
      },
      "geometry": {
        "type": "Point",
        "coordinates": [
          110.3138949,
          -7.8027417
        ]
      },
      "id": "way/321229425"
    },
    {
      "type": "Feature",
      "properties": {
        "@id": "way/338097224",
        "amenity": "police",
        "building": "yes",
        "name": "Kantor Polisi",
        "@geometry": "center"
      },
      "geometry": {
        "type": "Point",
        "coordinates": [
          110.3849594,
          -7.7704436
        ]
      },
      "id": "way/338097224"
    },
    {
      "type": "Feature",
      "properties": {
        "@id": "way/349955197",
        "amenity": "police",
        "building": "yes",
        "name": "Pos Ronda RW 23",
        "@geometry": "center"
      },
      "geometry": {
        "type": "Point",
        "coordinates": [
          110.3129321,
          -7.7958138
        ]
      },
      "id": "way/349955197"
    },
    {
      "type": "Feature",
      "properties": {
        "@id": "way/362042402",
        "amenity": "police",
        "building": "yes",
        "operator": "Kepolisian Negara Republik Indonesia",
        "operator:en": "Indonesian National Police",
        "operator:id": "Kepolisian Negara Republik Indonesia",
        "operator:short": "POLRI",
        "operator:wikidata": "Q3103954",
        "@geometry": "center"
      },
      "geometry": {
        "type": "Point",
        "coordinates": [
          110.3747673,
          -7.7826456
        ]
      },
      "id": "way/362042402"
    },
    {
      "type": "Feature",
      "properties": {
        "@id": "way/362042739",
        "amenity": "police",
        "building": "yes",
        "operator": "Kepolisian Negara Republik Indonesia",
        "operator:en": "Indonesian National Police",
        "operator:id": "Kepolisian Negara Republik Indonesia",
        "operator:short": "POLRI",
        "operator:wikidata": "Q3103954",
        "@geometry": "center"
      },
      "geometry": {
        "type": "Point",
        "coordinates": [
          110.3748433,
          -7.7825958
        ]
      },
      "id": "way/362042739"
    },
    {
      "type": "Feature",
      "properties": {
        "@id": "way/362679947",
        "amenity": "police",
        "building": "yes",
        "check_date": "2024-11-10",
        "name": "Pos Polisi Kentungan",
        "operator": "Polresta Sleman",
        "@geometry": "center"
      },
      "geometry": {
        "type": "Point",
        "coordinates": [
          110.3833324,
          -7.7552223
        ]
      },
      "id": "way/362679947"
    },
    {
      "type": "Feature",
      "properties": {
        "@id": "way/363085795",
        "amenity": "police",
        "building": "yes",
        "name": "Pos Polisi Lantas Sendangadi",
        "@geometry": "center"
      },
      "geometry": {
        "type": "Point",
        "coordinates": [
          110.3628934,
          -7.7354411
        ]
      },
      "id": "way/363085795"
    },
    {
      "type": "Feature",
      "properties": {
        "@id": "way/364383533",
        "addr:full": "Jl. Prambanan Piyungan",
        "amenity": "police",
        "building": "yes",
        "building:levels": "2",
        "building:roof": "tile",
        "building:structure": "plastered",
        "building:walls": "brick",
        "name": "Polsek Prambanan",
        "@geometry": "center"
      },
      "geometry": {
        "type": "Point",
        "coordinates": [
          110.4884569,
          -7.7594424
        ]
      },
      "id": "way/364383533"
    },
    {
      "type": "Feature",
      "properties": {
        "@id": "way/365560780",
        "amenity": "police",
        "building": "yes",
        "name": "PJR Ditlantas Polda DIY",
        "@geometry": "center"
      },
      "geometry": {
        "type": "Point",
        "coordinates": [
          110.4314748,
          -7.7690373
        ]
      },
      "id": "way/365560780"
    },
    {
      "type": "Feature",
      "properties": {
        "@id": "way/438452483",
        "amenity": "police",
        "building": "yes",
        "@geometry": "center"
      },
      "geometry": {
        "type": "Point",
        "coordinates": [
          110.3635345,
          -7.8063617
        ]
      },
      "id": "way/438452483"
    },
    {
      "type": "Feature",
      "properties": {
        "@id": "way/480931262",
        "addr:housenumber": "40",
        "addr:street": "Jalan Krasak Timur",
        "amenity": "police",
        "building": "yes",
        "changing_table": "no",
        "name": "Kepolisian Sektor Danurejan",
        "opening_hours": "24/7",
        "wheelchair": "no",
        "@geometry": "center"
      },
      "geometry": {
        "type": "Point",
        "coordinates": [
          110.3780801,
          -7.7884253
        ]
      },
      "id": "way/480931262"
    },
    {
      "type": "Feature",
      "properties": {
        "@id": "way/481083112",
        "alt_name": "Kantor DitPamObvit Polresta Yogyakarta",
        "amenity": "police",
        "building": "yes",
        "changing_table": "no",
        "check_date": "2025-08-01",
        "name": "Kantor Direktorat Pengamanan Obyek Vital Polresta Yogyakarta",
        "opening_hours": "24/7",
        "wheelchair": "no",
        "@geometry": "center"
      },
      "geometry": {
        "type": "Point",
        "coordinates": [
          110.3749899,
          -7.7884384
        ]
      },
      "id": "way/481083112"
    },
    {
      "type": "Feature",
      "properties": {
        "@id": "way/529901234",
        "addr:full": "Jl. Janti No.15, Banguntapan, Bantul, Daerah Istimewa Yogyakarta 55198",
        "amenity": "police",
        "building": "yes",
        "building:levels": "2",
        "building:roof": "tile",
        "building:walls": "brick",
        "name": "Satuan Polisi Pamong Praja DIY",
        "@geometry": "center"
      },
      "geometry": {
        "type": "Point",
        "coordinates": [
          110.4026978,
          -7.7993165
        ]
      },
      "id": "way/529901234"
    },
    {
      "type": "Feature",
      "properties": {
        "@id": "way/533720149",
        "addr:full": "Glondong",
        "amenity": "police",
        "building": "yes",
        "building:levels": "1",
        "building:roof": "tile",
        "building:structure": "plastered",
        "building:walls": "brick",
        "name": "Polsek Kalasan",
        "@geometry": "center"
      },
      "geometry": {
        "type": "Point",
        "coordinates": [
          110.4720539,
          -7.7657526
        ]
      },
      "id": "way/533720149"
    },
    {
      "type": "Feature",
      "properties": {
        "@id": "way/591934302",
        "addr:full": "Jalan Ring Road Utara",
        "amenity": "police",
        "name": "Polda DI Yogyakarta",
        "source": "survey",
        "@geometry": "center"
      },
      "geometry": {
        "type": "Point",
        "coordinates": [
          110.400699,
          -7.7573657
        ]
      },
      "id": "way/591934302"
    },
    {
      "type": "Feature",
      "properties": {
        "@id": "way/591946281",
        "addr:full": "Jalan Kolonel Sasuit Tubun",
        "amenity": "police",
        "name": "Polsek Ngampilan",
        "source": "survey",
        "@geometry": "center"
      },
      "geometry": {
        "type": "Point",
        "coordinates": [
          110.3602439,
          -7.7974043
        ]
      },
      "id": "way/591946281"
    },
    {
      "type": "Feature",
      "properties": {
        "@id": "way/592226018",
        "access:roof": "no",
        "addr:full": "Jalan Lobaningratan",
        "amenity": "police",
        "building": "police",
        "building:condition": "good",
        "building:levels": "2",
        "building:material": "concrete",
        "building:roof": "tile",
        "building:structure": "confined_masonry",
        "capacity:persons": "50-100",
        "name": "Polsek Gondomanan",
        "source": "survey",
        "@geometry": "center"
      },
      "geometry": {
        "type": "Point",
        "coordinates": [
          110.3701316,
          -7.8038035
        ]
      },
      "id": "way/592226018"
    },
    {
      "type": "Feature",
      "properties": {
        "@id": "way/592267346",
        "access:roof": "no",
        "addr:full": "Jalan Kapten Piere Tendean No. 595",
        "amenity": "police",
        "building": "police",
        "building:condition": "good",
        "building:levels": "1",
        "building:material": "brick",
        "building:roof": "tile",
        "building:structure": "confined_masonry",
        "capacity:persons": "50-100",
        "name": "Polsek Wirobrajan",
        "source": "survey",
        "@geometry": "center"
      },
      "geometry": {
        "type": "Point",
        "coordinates": [
          110.3504011,
          -7.8049429
        ]
      },
      "id": "way/592267346"
    },
    {
      "type": "Feature",
      "properties": {
        "@id": "way/594421950",
        "addr:full": "jalan mentri supeno",
        "amenity": "police",
        "building": "police",
        "building:condition": "good",
        "building:levels": "1",
        "building:material": "brick",
        "building:roof": "tile",
        "building:structure": "confined_masonry",
        "capacity:persons": "50-100",
        "name": "Kantor Polisi Sektor Kota Umbulharjo",
        "source": "survey",
        "@geometry": "center"
      },
      "geometry": {
        "type": "Point",
        "coordinates": [
          110.3858049,
          -7.8167812
        ]
      },
      "id": "way/594421950"
    },
    {
      "type": "Feature",
      "properties": {
        "@id": "way/610352502",
        "amenity": "police",
        "building": "yes",
        "check_date": "2024-11-10",
        "name": "Pos Polisi Lalu Lintas Dongkelan",
        "opening_hours": "24/7",
        "operator": "Polres Bantul",
        "@geometry": "center"
      },
      "geometry": {
        "type": "Point",
        "coordinates": [
          110.3539829,
          -7.8279427
        ]
      },
      "id": "way/610352502"
    },
    {
      "type": "Feature",
      "properties": {
        "@id": "way/615162981",
        "amenity": "police",
        "building": "yes",
        "check_date": "2024-11-10",
        "name": "Pos Polisi Lalu Lintas Blok O",
        "operator": "Polres Bantul",
        "@geometry": "center"
      },
      "geometry": {
        "type": "Point",
        "coordinates": [
          110.4100643,
          -7.7986692
        ]
      },
      "id": "way/615162981"
    },
    {
      "type": "Feature",
      "properties": {
        "@id": "way/683479808",
        "access:roof": "no",
        "addr:city": "Yogyakarta",
        "addr:district": "Gedongtengen",
        "addr:full": "Jalan Jlagran Lor No.12, Pringgokusuman, Gedong Tengen, Kota Yogyakarta, Daerah Istimewa Yogyakarta 55272",
        "addr:province": "Daerah Istimewa Yogyakarta",
        "addr:street": "Jalan Jlagran Lor",
        "addr:subdistrict": "Pringgokusuman",
        "amenity": "police",
        "building": "police",
        "building:condition": "good",
        "building:levels": "2",
        "building:material": "brick",
        "building:roof": "tile",
        "building:structure": "confined_masonry",
        "capacity:persons": "50-100",
        "check_date": "2024-12-22",
        "name": "Polsek Gedongtengen",
        "source": "survey;local knowledge;aerial imagery",
        "@geometry": "center"
      },
      "geometry": {
        "type": "Point",
        "coordinates": [
          110.3596038,
          -7.7892688
        ]
      },
      "id": "way/683479808"
    },
    {
      "type": "Feature",
      "properties": {
        "@id": "way/779341106",
        "amenity": "police",
        "building": "yes",
        "name": "Pos Polisi Malioboro",
        "police": "checkpoint",
        "@geometry": "center"
      },
      "geometry": {
        "type": "Point",
        "coordinates": [
          110.3662979,
          -7.7897957
        ]
      },
      "id": "way/779341106"
    },
    {
      "type": "Feature",
      "properties": {
        "@id": "way/1152311528",
        "amenity": "police",
        "building": "yes",
        "check_date": "2024-11-10",
        "name": "Pos Polisi Lalu Lintas Gondowulung",
        "opening_hours": "24/7",
        "operator": "Polresta Yogyakarta",
        "@geometry": "center"
      },
      "geometry": {
        "type": "Point",
        "coordinates": [
          110.3917627,
          -7.8368276
        ]
      },
      "id": "way/1152311528"
    },
    {
      "type": "Feature",
      "properties": {
        "@id": "way/1153090515",
        "amenity": "police",
        "building": "yes",
        "@geometry": "center"
      },
      "geometry": {
        "type": "Point",
        "coordinates": [
          110.3578663,
          -7.808391
        ]
      },
      "id": "way/1153090515"
    },
    {
      "type": "Feature",
      "properties": {
        "@id": "way/1332798114",
        "amenity": "police",
        "building": "yes",
        "check_date": "2024-11-10",
        "name": "Pos Polisi Lalu Lintas Wojo",
        "operator": "Polres Bantul",
        "@geometry": "center"
      },
      "geometry": {
        "type": "Point",
        "coordinates": [
          110.3743508,
          -7.8364906
        ]
      },
      "id": "way/1332798114"
    },
    {
      "type": "Feature",
      "properties": {
        "@id": "way/1332798842",
        "amenity": "police",
        "building": "yes",
        "check_date": "2024-11-10",
        "name": "Pos Polisi Lalu Lintas Druwo",
        "opening_hours": "24/7",
        "operator": "Polsek  Sewon",
        "@geometry": "center"
      },
      "geometry": {
        "type": "Point",
        "coordinates": [
          110.3656455,
          -7.8360069
        ]
      },
      "id": "way/1332798842"
    },
    {
      "type": "Feature",
      "properties": {
        "@id": "way/1332799374",
        "amenity": "police",
        "building": "yes",
        "check_date": "2024-11-10",
        "name": "Pos Polisi Lalu Lintas Madukismo",
        "operator": "Polsek Kasihan",
        "@geometry": "center"
      },
      "geometry": {
        "type": "Point",
        "coordinates": [
          110.3449882,
          -7.8267332
        ]
      },
      "id": "way/1332799374"
    },
    {
      "type": "Feature",
      "properties": {
        "@id": "way/1332799946",
        "amenity": "police",
        "building": "yes",
        "check_date": "2024-11-10",
        "name": "Pos Polisi Tamantirto",
        "operator": "Polsek Kasihan",
        "@geometry": "center"
      },
      "geometry": {
        "type": "Point",
        "coordinates": [
          110.327877,
          -7.8223148
        ]
      },
      "id": "way/1332799946"
    },
    {
      "type": "Feature",
      "properties": {
        "@id": "way/1332805059",
        "amenity": "police",
        "building": "yes",
        "check_date": "2024-11-10",
        "name": "Pos Polisi Lalu Lintas Pelemgurih",
        "opening_hours": "24/7",
        "operator": "Polresta Sleman",
        "@geometry": "center"
      },
      "geometry": {
        "type": "Point",
        "coordinates": [
          110.3301475,
          -7.7996916
        ]
      },
      "id": "way/1332805059"
    },
    {
      "type": "Feature",
      "properties": {
        "@id": "way/1332807181",
        "amenity": "police",
        "building": "yes",
        "check_date": "2024-11-10",
        "name": "Pos Polisi Kronggahan",
        "official_name": "Sub Sektor Kronggahan",
        "opening_hours": "24/7",
        "operator": "Polsek Gamping",
        "@geometry": "center"
      },
      "geometry": {
        "type": "Point",
        "coordinates": [
          110.3491284,
          -7.7451654
        ]
      },
      "id": "way/1332807181"
    },
    {
      "type": "Feature",
      "properties": {
        "@id": "way/1332808068",
        "amenity": "police",
        "building": "yes",
        "check_date": "2024-11-10",
        "level": "2",
        "name": "Pos Polisi Lalu Lintas Jombor",
        "opening_hours": "24/7",
        "operator": "Polresta Sleman",
        "@geometry": "center"
      },
      "geometry": {
        "type": "Point",
        "coordinates": [
          110.3618637,
          -7.7487913
        ]
      },
      "id": "way/1332808068"
    },
    {
      "type": "Feature",
      "properties": {
        "@id": "way/1332808791",
        "amenity": "police",
        "building": "yes",
        "name": "Pos Polisi Lalu Lintas Monjali",
        "opening_hours": "24/7",
        "operator": "Polresta Sleman",
        "@geometry": "center"
      },
      "geometry": {
        "type": "Point",
        "coordinates": [
          110.371078,
          -7.7509128
        ]
      },
      "id": "way/1332808791"
    },
    {
      "type": "Feature",
      "properties": {
        "@id": "way/1332809190",
        "amenity": "police",
        "building": "yes",
        "check_date": "2024-11-10",
        "name": "Pos Polisi Lalu Lintas Condongcatur",
        "operator": "Polresta Sleman",
        "@geometry": "center"
      },
      "geometry": {
        "type": "Point",
        "coordinates": [
          110.3954825,
          -7.7582284
        ]
      },
      "id": "way/1332809190"
    },
    {
      "type": "Feature",
      "properties": {
        "@id": "way/1332809573",
        "amenity": "police",
        "building": "yes",
        "check_date": "2024-11-10",
        "name": "Pos Polisi Lalu Lintas UPN",
        "operator": "Polresta Sleman",
        "@geometry": "center"
      },
      "geometry": {
        "type": "Point",
        "coordinates": [
          110.4118718,
          -7.7618576
        ]
      },
      "id": "way/1332809573"
    },
    {
      "type": "Feature",
      "properties": {
        "@id": "way/1332809937",
        "amenity": "police",
        "building": "yes",
        "check_date": "2024-11-10",
        "name": "Pos Polisi Lalu Lintas Maguwo",
        "opening_hours": "24/7",
        "operator": "Polresta Sleman",
        "@geometry": "center"
      },
      "geometry": {
        "type": "Point",
        "coordinates": [
          110.4295629,
          -7.78328
        ]
      },
      "id": "way/1332809937"
    },
    {
      "type": "Feature",
      "properties": {
        "@id": "way/1332810357",
        "amenity": "police",
        "building": "yes",
        "check_date": "2024-11-10",
        "name": "Pos Polisi Lalu Lintas Janti",
        "operator": "Polresta Sleman",
        "@geometry": "center"
      },
      "geometry": {
        "type": "Point",
        "coordinates": [
          110.4107988,
          -7.7831485
        ]
      },
      "id": "way/1332810357"
    },
    {
      "type": "Feature",
      "properties": {
        "@id": "way/1332812899",
        "amenity": "police",
        "building": "yes",
        "check_date": "2024-11-10",
        "name": "Pos Polisi Lalu Lintas Ketandan",
        "opening_hours": "24/7",
        "operator": "Polres Bantul",
        "@geometry": "center"
      },
      "geometry": {
        "type": "Point",
        "coordinates": [
          110.4092888,
          -7.8116865
        ]
      },
      "id": "way/1332812899"
    },
    {
      "type": "Feature",
      "properties": {
        "@id": "way/1332813707",
        "amenity": "police",
        "building": "yes",
        "check_date": "2024-11-10",
        "name": "Pos Polisi Lalu Lintas Karangturi",
        "operator": "Polsek Banguntapan",
        "@geometry": "center"
      },
      "geometry": {
        "type": "Point",
        "coordinates": [
          110.4080441,
          -7.8286449
        ]
      },
      "id": "way/1332813707"
    },
    {
      "type": "Feature",
      "properties": {
        "@id": "node/1361158435",
        "amenity": "police",
        "name": "Satuan Polisi Pamong Praja"
      },
      "geometry": {
        "type": "Point",
        "coordinates": [
          110.3552966,
          -7.71693
        ]
      },
      "id": "node/1361158435"
    },
    {
      "type": "Feature",
      "properties": {
        "@id": "node/1361184760",
        "amenity": "police",
        "name": "Polisi Pariwisata"
      },
      "geometry": {
        "type": "Point",
        "coordinates": [
          110.3594155,
          -7.7209455
        ]
      },
      "id": "node/1361184760"
    },
    {
      "type": "Feature",
      "properties": {
        "@id": "node/1362922066",
        "amenity": "police",
        "name": "Polsek Depok Timur"
      },
      "geometry": {
        "type": "Point",
        "coordinates": [
          110.4154192,
          -7.7618112
        ]
      },
      "id": "node/1362922066"
    },
    {
      "type": "Feature",
      "properties": {
        "@id": "way/1455327371",
        "amenity": "police",
        "building": "yes",
        "name": "Pos Polisi",
        "@geometry": "center"
      },
      "geometry": {
        "type": "Point",
        "coordinates": [
          110.3790712,
          -7.7828854
        ]
      },
      "id": "way/1455327371"
    },
    {
      "type": "Feature",
      "properties": {
        "@id": "way/1464214757",
        "amenity": "police",
        "building": "yes",
        "@geometry": "center"
      },
      "geometry": {
        "type": "Point",
        "coordinates": [
          110.372374,
          -7.7830458
        ]
      },
      "id": "way/1464214757"
    },
    {
      "type": "Feature",
      "properties": {
        "@id": "node/1654015715",
        "amenity": "police",
        "name": "Polsek Mantrijeron"
      },
      "geometry": {
        "type": "Point",
        "coordinates": [
          110.3630626,
          -7.8145582
        ]
      },
      "id": "node/1654015715"
    },
    {
      "type": "Feature",
      "properties": {
        "@id": "node/1769202232",
        "amenity": "police",
        "name": "Polsek Ngaglik"
      },
      "geometry": {
        "type": "Point",
        "coordinates": [
          110.4007271,
          -7.7234609
        ]
      },
      "id": "node/1769202232"
    },
    {
      "type": "Feature",
      "properties": {
        "@id": "node/3214932239",
        "amenity": "police",
        "name": "Pos Polisi Plengkung Gading"
      },
      "geometry": {
        "type": "Point",
        "coordinates": [
          110.3629405,
          -7.8140663
        ]
      },
      "id": "node/3214932239"
    },
    {
      "type": "Feature",
      "properties": {
        "@id": "node/3214932240",
        "amenity": "police",
        "name": "Pos Polisi Pojok Beteng Wetan"
      },
      "geometry": {
        "type": "Point",
        "coordinates": [
          110.3686031,
          -7.8146236
        ]
      },
      "id": "node/3214932240"
    },
    {
      "type": "Feature",
      "properties": {
        "@id": "node/3309083904",
        "amenity": "police",
        "name": "Polsek Seyegan",
        "opening_hours": "24/7"
      },
      "geometry": {
        "type": "Point",
        "coordinates": [
          110.3085865,
          -7.7201483
        ]
      },
      "id": "node/3309083904"
    },
    {
      "type": "Feature",
      "properties": {
        "@id": "node/3318110561",
        "amenity": "police",
        "name": "Polsek Mlati"
      },
      "geometry": {
        "type": "Point",
        "coordinates": [
          110.3283125,
          -7.7345061
        ]
      },
      "id": "node/3318110561"
    },
    {
      "type": "Feature",
      "properties": {
        "@id": "node/3558030827",
        "amenity": "police",
        "name": "Pos Ronda RW 23"
      },
      "geometry": {
        "type": "Point",
        "coordinates": [
          110.314606,
          -7.7960127
        ]
      },
      "id": "node/3558030827"
    },
    {
      "type": "Feature",
      "properties": {
        "@id": "node/3558030829",
        "amenity": "police",
        "name": "Pos Ronda RW 24"
      },
      "geometry": {
        "type": "Point",
        "coordinates": [
          110.3142833,
          -7.7986117
        ]
      },
      "id": "node/3558030829"
    },
    {
      "type": "Feature",
      "properties": {
        "@id": "node/3559577401",
        "amenity": "police",
        "name": "Pos Ronda RW 23"
      },
      "geometry": {
        "type": "Point",
        "coordinates": [
          110.3129361,
          -7.795811
        ]
      },
      "id": "node/3559577401"
    },
    {
      "type": "Feature",
      "properties": {
        "@id": "node/3582733611",
        "amenity": "police",
        "name": "Polsek Kasihan"
      },
      "geometry": {
        "type": "Point",
        "coordinates": [
          110.3425336,
          -7.8288847
        ]
      },
      "id": "node/3582733611"
    },
    {
      "type": "Feature",
      "properties": {
        "@id": "node/3624913655",
        "amenity": "police"
      },
      "geometry": {
        "type": "Point",
        "coordinates": [
          110.3887383,
          -7.7779521
        ]
      },
      "id": "node/3624913655"
    },
    {
      "type": "Feature",
      "properties": {
        "@id": "node/3638415602",
        "amenity": "police",
        "name": "Pos Lantas Piyungan"
      },
      "geometry": {
        "type": "Point",
        "coordinates": [
          110.4760686,
          -7.838227
        ]
      },
      "id": "node/3638415602"
    },
    {
      "type": "Feature",
      "properties": {
        "@id": "node/5908962486",
        "amenity": "police",
        "government": "yes",
        "name": "Polsek Piyungan",
        "name:en": "Polsek Piyungan"
      },
      "geometry": {
        "type": "Point",
        "coordinates": [
          110.4747971,
          -7.8376805
        ]
      },
      "id": "node/5908962486"
    },
    {
      "type": "Feature",
      "properties": {
        "@id": "node/9751924127",
        "amenity": "police",
        "name": "Polsek Patuk"
      },
      "geometry": {
        "type": "Point",
        "coordinates": [
          110.4875498,
          -7.8518951
        ]
      },
      "id": "node/9751924127"
    },
    {
      "type": "Feature",
      "properties": {
        "@id": "node/9821473368",
        "amenity": "police",
        "name": "Gerai Sentra Pelayanan Masyarakat Malioboro Mall"
      },
      "geometry": {
        "type": "Point",
        "coordinates": [
          110.3658678,
          -7.7936683
        ]
      },
      "id": "node/9821473368"
    },
    {
      "type": "Feature",
      "properties": {
        "@id": "node/9821670588",
        "amenity": "police",
        "name": "Pos Polisi Tugu Jogja"
      },
      "geometry": {
        "type": "Point",
        "coordinates": [
          110.3671533,
          -7.7832248
        ]
      },
      "id": "node/9821670588"
    },
    {
      "type": "Feature",
      "properties": {
        "@id": "node/10065909182",
        "amenity": "police",
        "name": "Pos Lantas Denggung"
      },
      "geometry": {
        "type": "Point",
        "coordinates": [
          110.3612417,
          -7.7218165
        ]
      },
      "id": "node/10065909182"
    },
    {
      "type": "Feature",
      "properties": {
        "@id": "node/12473323673",
        "amenity": "police",
        "name": "Polsek Mergangsan"
      },
      "geometry": {
        "type": "Point",
        "coordinates": [
          110.373301,
          -7.8180299
        ]
      },
      "id": "node/12473323673"
    },
    {
      "type": "Feature",
      "properties": {
        "@id": "node/13523525100",
        "amenity": "police",
        "police": "checkpoint"
      },
      "geometry": {
        "type": "Point",
        "coordinates": [
          110.3676162,
          -7.7900688
        ]
      },
      "id": "node/13523525100"
    }
  ]
}