{
  "type": "FeatureCollection",
  "features": [
    {
      "type": "Feature",
      "geometry": { "type": "Point", "coordinates": [110.36683, -7.79072] },
      "properties": { "name": "SPBU Jl. Mangkubumi", "brand": "Pertamina", "addr:street": "Jl. Mangkubumi", "addr:city": "Yogyakarta" }
    },
    {
      "type": "Feature",
      "geometry": { "type": "Point", "coordinates": [110.37102, -7.80316] },
      "properties": { "name": "SPBU Jl. Sudirman", "brand": "Pertamina", "addr:street": "Jl. Jenderal Sudirman", "addr:city": "Yogyakarta" }
    },
    {
      "type": "Feature",
      "geometry": { "type": "Point", "coordinates": [110.39442, -7.79598] },
      "properties": { "name": "SPBU Jl. Solo Km 5", "brand": "Pertamina", "addr:street": "Jl. Adisucipto (Solo Km 5)", "addr:city": "Sleman" }
    },
    {
      "type": "Feature",
      "geometry": { "type": "Point", "coordinates": [110.37738, -7.77209] },
      "properties": { "name": "SPBU Jl. Kaliurang Km 5", "brand": "Pertamina", "addr:street": "Jl. Kaliurang Km 5", "addr:city": "Sleman" }
    },
    {
      "type": "Feature",
      "geometry": { "type": "Point", "coordinates": [110.37585, -7.75401] },
      "properties": { "name": "SPBU Jl. Kaliurang Km 8", "brand": "Pertamina", "addr:street": "Jl. Kaliurang Km 8", "addr:city": "Sleman" }
    },
    {
      "type": "Feature",
      "geometry": { "type": "Point", "coordinates": [110.36217, -7.75072] },
      "properties": { "name": "SPBU Jl. Monjali", "brand": "Pertamina", "addr:street": "Jl. Monumen Jogja Kembali", "addr:city": "Sleman" }
    },
    {
      "type": "Feature",
      "geometry": { "type": "Point", "coordinates": [110.35189, -7.79684] },
      "properties": { "name": "SPBU Jl. Wates Km 3", "brand": "Pertamina", "addr:street": "Jl. Wates Km 3", "addr:city": "Yogyakarta" }
    },
    {
      "type": "Feature",
      "geometry": { "type": "Point", "coordinates": [110.38825, -7.81573] },
      "properties": { "name": "SPBU Jl. Kusumanegara", "brand": "Pertamina", "addr:street": "Jl. Kusumanegara", "addr:city": "Yogyakarta" }
    },
    {
      "type": "Feature",
      "geometry": { "type": "Point", "coordinates": [110.36412, -7.81861] },
      "properties": { "name": "SPBU Jl. Parangtritis", "brand": "Pertamina", "addr:street": "Jl. Parangtritis", "addr:city": "Yogyakarta" }
    },
    {
      "type": "Feature",
      "geometry": { "type": "Point", "coordinates": [110.41256, -7.78122] },
      "properties": { "name": "SPBU Jl. Solo Babarsari", "brand": "Pertamina", "addr:street": "Jl. Raya Solo (Babarsari)", "addr:city": "Sleman" }
    },
    {
      "type": "Feature",
      "geometry": { "type": "Point", "coordinates": [110.40714, -7.76231] },
      "properties": { "name": "SPBU Condongcatur", "brand": "Pertamina", "addr:street": "Jl. Ringroad Utara Condongcatur", "addr:city": "Sleman" }
    },
    {
      "type": "Feature",
      "geometry": { "type": "Point", "coordinates": [110.35011, -7.76604] },
      "properties": { "name": "SPBU Jl. Godean Km 4", "brand": "Pertamina", "addr:street": "Jl. Godean Km 4", "addr:city": "Sleman" }
    },
    {
      "type": "Feature",
      "geometry": { "type": "Point", "coordinates": [110.36884, -7.83012] },
      "properties": { "name": "SPBU Jl. Bantul Km 5", "brand": "Pertamina", "addr:street": "Jl. Bantul Km 5", "addr:city": "Bantul" }
    },
    {
      "type": "Feature",
      "geometry": { "type": "Point", "coordinates": [110.37129, -7.82041] },
      "properties": { "name": "SPBU Jl. Imogiri Barat", "brand": "Pertamina", "addr:street": "Jl. Imogiri Barat", "addr:city": "Yogyakarta" }
    },
    {
      "type": "Feature",
      "geometry": { "type": "Point", "coordinates": [110.38184, -7.80912] },
      "properties": { "name": "SPBU Umbulharjo", "brand": "Pertamina", "addr:street": "Jl. Veteran (Umbulharjo)", "addr:city": "Yogyakarta" }
    },
    {
      "type": "Feature",
      "geometry": { "type": "Point", "coordinates": [110.38942, -7.77881] },
      "properties": { "name": "SPBU Demangan", "brand": "Pertamina", "addr:street": "Jl. Gejayan / Demangan", "addr:city": "Yogyakarta" }
    },
    {
      "type": "Feature",
      "geometry": { "type": "Point", "coordinates": [110.36551, -7.80432] },
      "properties": { "name": "SPBU Jl. Magelang Km 4", "brand": "Pertamina", "addr:street": "Jl. Magelang Km 4", "addr:city": "Sleman" }
    },
    {
      "type": "Feature",
      "geometry": { "type": "Point", "coordinates": [110.38412, -7.78831] },
      "properties": { "name": "SPBU Jl. C. Simanjuntak", "brand": "Pertamina", "addr:street": "Jl. C. Simanjuntak", "addr:city": "Yogyakarta" }
    },
    {
      "type": "Feature",
      "geometry": { "type": "Point", "coordinates": [110.37023, -7.76843] },
      "properties": { "name": "SPBU Jl. Ring Road Utara (Barat)", "brand": "Pertamina", "addr:street": "Jl. Ring Road Utara", "addr:city": "Sleman" }
    },
    {
      "type": "Feature",
      "geometry": { "type": "Point", "coordinates": [110.39784, -7.80243] },
      "properties": { "name": "SPBU Jl. Ring Road Timur", "brand": "Pertamina", "addr:street": "Jl. Ring Road Timur", "addr:city": "Yogyakarta" }
    }
  ]
}
